{
   "type": "FeatureCollection",
   "features": [
  {
    "type": "Feature",
    "geometry": {
       "type": "Point",
       "coordinates":  [ 25.04302374,25.04302374 ]
    },
    "properties": {
    "data/city":"臺北市",
    "data/district":"大安區",
    "data/ID":7785,
    "data/GymType":"舞蹈運動設施/多功能舞蹈運動教室（含舞蹈教室/韻律教室/瑜珈教室等類型空間）",
    "data/Name":"臺北科技大學第三教學大樓B1體適能運動中心(舞蹈教室)",
    "data/Addr":"臺北市大安區忠孝東路三段1號",
    "data/OperationTel":"02-27712171#3320",
    "data/WebUrl":"http://www.ntut.edu.tw",
    "data/ParkType":"無停車場",
    "data/EnableYear":74,
    "data/EnableMonth":7,
    "data/Introduction":"舞蹈教室設有教師休息室、器材室與律墊等器材,可容納40位學生進行運動。",
    "data/Contest":"未曾在本場地舉辦運動賽事",
    "data/ContestIntro":"",
    "data/Lng":121.5343533,
    "data/Photo1Url":"https://iplay.sa.gov.tw/Upload/photogym/20140617224725_dancingroom.jpg",
    "data/Photo2Url":"https://iplay.sa.gov.tw/Upload/photogym/20140617224725_DancingRoom_2.jpg",
    "data/PassEasyEle":0,
    "data/PassEasyElePhotoUrl":"https://iplay.sa.gov.tw",
    "data/PassEasyFuncOthers":"",
    "data/PassEasyParking":0,
    "data/PassEasyParkingPhotoUrl":"https://iplay.sa.gov.tw",
    "data/PassEasyShower":0,
    "data/PassEasyShowerPhotoUrl":"https://iplay.sa.gov.tw",
    "data/PassEasyToilet":0,
    "data/PassEasyToiletPhotoUrl":"https://iplay.sa.gov.tw",
    "data/PassEasyWay":0,
    "data/PassEasyWayPhotoUrl":"https://iplay.sa.gov.tw",
    "data/WheelchairAuditorium":"0",
    "data/WheelchairAuditoriumPhotoUrl":"https://iplay.sa.gov.tw",
    "data/PublicTransport":"搭乘捷運：\n藍線【板南土城線】忠孝新生站 或 橘線【中和新蘆線】忠孝新生站，4號出口台北科技大學。\n‧各線公車：\n‧台北科技大學站--212、212直達車、232、262、299及605。 ‧忠孝新生路口站--72、109、115、214、222、226、280、290、505、642、665、668、672及松江新生幹線。\n‧搭火車：\n由台北火車站直接轉捷運【板南線】至忠孝新生站，4號出口台北科技大學。\n‧搭高鐵：\n由高鐵台北站直接轉捷運【板南線】至忠孝新生站，4號出口台北科技大學。\n‧自行開車：\n【國道一號】於建國北路/松江路交流道下(靠左走建國北路高架橋) \n於忠孝東路出口下(循右線右轉忠孝東路)續行約100公尺即達本校。\n【國道三號】於新店交流道接木柵交流道下辛亥路轉建國南路直走至忠孝東路口即達本校。",
    "data/Declaration":"",
    "data/DeclarationUrl":"",
    "data/Rate":0,
    "data/RateCount":0,
    "data/GymFuncData/0/ID":7673,
    "data/GymFuncData/0/Name":"舞蹈教室",
    "data/GymFuncData/0/GymType":"舞蹈運動設施/多功能舞蹈運動教室（含舞蹈教室/韻律教室/瑜珈教室等類型空間）",
    "data/GymFuncData/0/InOut":"室內設施",
    "data/GymFuncData/0/Floor":"B1"
    }
  },
  {
    "type": "Feature",
    "geometry": {
       "type": "Point",
       "coordinates":  [ 25.05722243,25.05722243 ]
    },
    "properties": {
    "data/city":"臺北市",
    "data/district":"南港區",
    "data/ID":22030,
    "data/GymType":"球類運動設施/籃球場館",
    "data/Name":"南港國民小學活動中心",
    "data/Addr":"臺北市南港區三重里惠民街67號",
    "data/OperationTel":"02-27834678",
    "data/WebUrl":"http://www.nkps.tp.edu.tw",
    "data/ParkType":"一般及無障礙停車場",
    "data/EnableYear":99,
    "data/EnableMonth":8,
    "data/Introduction":"本館位於南港國民小學活動中心四樓，於民國99年8月完工，內附綜合球場。",
    "data/Contest":"曾在本場地舉辦國內運動賽事",
    "data/ContestIntro":"本場館舉辦南友盃全國少年籃球錦標賽",
    "data/Lng":121.6105843,
    "data/Photo1Url":"https://iplay.sa.gov.tw/Upload/photogym/20160719122128_55L38YJ05R36CGQ8H02Y.jpg",
    "data/Photo2Url":"https://iplay.sa.gov.tw/Upload/photogym/20160719122128_AU9266FJHBRM0A0KHLJR.jpg",
    "data/PassEasyEle":2,
    "data/PassEasyElePhotoUrl":"https://iplay.sa.gov.tw/Upload/passeasyphotogym/南港國民小學活動中心無障礙電梯照片20170622164618.jpg",
    "data/PassEasyFuncOthers":"",
    "data/PassEasyParking":1,
    "data/PassEasyParkingPhotoUrl":"https://iplay.sa.gov.tw/Upload/passeasyphotogym/南港國民小學活動中心無障礙停車位照片20170622164618.jpg",
    "data/PassEasyShower":0,
    "data/PassEasyShowerPhotoUrl":"https://iplay.sa.gov.tw",
    "data/PassEasyToilet":3,
    "data/PassEasyToiletPhotoUrl":"https://iplay.sa.gov.tw/Upload/passeasyphotogym/南港國民小學活動中心無障礙廁所照片20170622164618.jpg",
    "data/PassEasyWay":2,
    "data/PassEasyWayPhotoUrl":"https://iplay.sa.gov.tw/Upload/passeasyphotogym/南港國民小學活動中心無障礙通道照片20170622164618.jpg",
    "data/WheelchairAuditorium":"0",
    "data/WheelchairAuditoriumPhotoUrl":"https://iplay.sa.gov.tw",
    "data/PublicTransport":"可搭乘捷運「板橋南港線」至南港站後，2號出口，步行約7分鐘即達。\n",
    "data/Declaration":"",
    "data/DeclarationUrl":"http://w3.nkps.tp.edu.tw/a/",
    "data/Rate":0,
    "data/RateCount":0,
    "data/GymFuncData/0/ID":28815,
    "data/GymFuncData/0/Name":"籃球場",
    "data/GymFuncData/0/GymType":"球類運動設施/籃球場館",
    "data/GymFuncData/0/InOut":"室內設施",
    "data/GymFuncData/0/Floor":"4"
    }
  },
  {
    "type": "Feature",
    "geometry": {
       "type": "Point",
       "coordinates":  [ 24.99880983,24.99880983 ]
    },
    "properties": {
    "data/city":"臺北市",
    "data/district":"文山區",
    "data/ID":11793,
    "data/GymType":"球類運動設施/籃球場館",
    "data/Name":"靜心小學運動中心",
    "data/Addr":"臺北市文山區興福里興隆路2段46號",
    "data/OperationTel":"02-29323118#165",
    "data/WebUrl":"http://www.chjhs.tp.edu.tw",
    "data/ParkType":"無停車場",
    "data/EnableYear":99,
    "data/EnableMonth":9,
    "data/Introduction":"本館興建於民國99年9月，位於靜心中小學校園內，內有一籃球場、羽球場(籃球場與羽球場共用一個空間)、韻律教室",
    "data/Contest":"未曾在本場地舉辦運動賽事",
    "data/ContestIntro":"",
    "data/Lng":121.5467724,
    "data/Photo1Url":"https://iplay.sa.gov.tw/Upload/photogym/20140702172907_運動中心1.JPG",
    "data/Photo2Url":"https://iplay.sa.gov.tw/Upload/photogym/20140702172907_運動場1.JPG",
    "data/PassEasyEle":null,
    "data/PassEasyElePhotoUrl":"https://iplay.sa.gov.tw",
    "data/PassEasyFuncOthers":"",
    "data/PassEasyParking":null,
    "data/PassEasyParkingPhotoUrl":"https://iplay.sa.gov.tw",
    "data/PassEasyShower":null,
    "data/PassEasyShowerPhotoUrl":"https://iplay.sa.gov.tw",
    "data/PassEasyToilet":null,
    "data/PassEasyToiletPhotoUrl":"https://iplay.sa.gov.tw",
    "data/PassEasyWay":null,
    "data/PassEasyWayPhotoUrl":"https://iplay.sa.gov.tw",
    "data/WheelchairAuditorium":"",
    "data/WheelchairAuditoriumPhotoUrl":"https://iplay.sa.gov.tw",
    "data/PublicTransport":"搭公車：\n 可搭乘236、253、0南、606、530等路線公車到興隆市場站下車即達。\n",
    "data/Declaration":"",
    "data/DeclarationUrl":"",
    "data/Rate":2,
    "data/RateCount":2,
    "data/GymFuncData/0/ID":14991,
    "data/GymFuncData/0/Name":"籃球場",
    "data/GymFuncData/0/GymType":"球類運動設施/籃球場館",
    "data/GymFuncData/0/InOut":"室內設施",
    "data/GymFuncData/0/Floor":"2"
    }
  },
  {
    "type": "Feature",
    "geometry": {
       "type": "Point",
       "coordinates":  [ 25.06693142,25.06693142 ]
    },
    "properties": {
    "data/city":"臺北市",
    "data/district":"內湖區",
    "data/ID":9882,
    "data/GymType":"球類運動設施/籃球場館",
    "data/Name":"南湖高中運動中心",
    "data/Addr":"臺北市內湖區康寧路三段220號",
    "data/OperationTel":"02-26308889",
    "data/WebUrl":"http://www.nhush.tp.edu.tw/",
    "data/ParkType":"一般及無障礙停車場",
    "data/EnableYear":91,
    "data/EnableMonth":8,
    "data/Introduction":"本場館興建於民國93年，當時專門為臺北市立南湖高中師生使用，後於民國96年依臺北市政府相關規定委外營運(頂尖運動行銷公司)。場館一樓設有溫水游泳池、SPA池、烤箱及蒸氣室；內部另設有健身中心(芳鄰健身中心)；二樓為綜合體育館，可供籃球、排球、羽球等或其他大型活動使用。",
    "data/Contest":"曾在本場地舉辦國際運動賽事及國內運動賽事",
    "data/ContestIntro":"本場館為102年全運會女子排球競賽主場地。\n本場館為98-102年全國中正盃桌球錦標賽競賽主場地。\n本場館為100-102學年度臺北市教育盃籃球錦標賽主場地。\n本場館為99-102學年度全國國中女子排球聯賽主場地",
    "data/Lng":121.6106915,
    "data/Photo1Url":"https://iplay.sa.gov.tw/Upload/photogym/20140621142951_10458524_10204354110359585_1277845401404937502_n.jpg",
    "data/Photo2Url":"https://iplay.sa.gov.tw/Upload/photogym/20140621142951_10469463_10204354109959575_8853121785889385256_n.jpg",
    "data/PassEasyEle":null,
    "data/PassEasyElePhotoUrl":"https://iplay.sa.gov.tw",
    "data/PassEasyFuncOthers":"",
    "data/PassEasyParking":null,
    "data/PassEasyParkingPhotoUrl":"https://iplay.sa.gov.tw",
    "data/PassEasyShower":null,
    "data/PassEasyShowerPhotoUrl":"https://iplay.sa.gov.tw",
    "data/PassEasyToilet":null,
    "data/PassEasyToiletPhotoUrl":"https://iplay.sa.gov.tw",
    "data/PassEasyWay":null,
    "data/PassEasyWayPhotoUrl":"https://iplay.sa.gov.tw",
    "data/WheelchairAuditorium":"",
    "data/WheelchairAuditoriumPhotoUrl":"https://iplay.sa.gov.tw",
    "data/PublicTransport":"一.大眾運輸系統：\n\n   1.捷運:搭乘捷運文湖線到捷運東湖站 2號出口( 出站即到校 )\n\n   2.公車:搭乘下列公車抵達捷運東湖站(南湖高中)\n\n590\n\n591\n\n896\n\n681\n\n683\n\n203\n\n240直\n\n247\n\n247區\n\n281\n\n53\n\n531\n\n553\n\n620\n\n629\n\n645\n\n645副\n\n681\n\n711\n\n \n小1\n\n小1區\n\n棕10\n\n棕19\n\n藍51\n\n民權幹線\n\n南京幹線\n\n ",
    "data/Declaration":"",
    "data/DeclarationUrl":"",
    "data/Rate":6,
    "data/RateCount":7,
    "data/GymFuncData/0/ID":18605,
    "data/GymFuncData/0/Name":"籃球場",
    "data/GymFuncData/0/GymType":"球類運動設施/籃球場館",
    "data/GymFuncData/0/InOut":"室內設施",
    "data/GymFuncData/0/Floor":"2"
    }
  },
  {
    "type": "Feature",
    "geometry": {
       "type": "Point",
       "coordinates":  [ 25.0790933,25.0790933 ]
    },
    "properties": {
    "data/city":"臺北市",
    "data/district":"中山區",
    "data/ID":15223,
    "data/GymType":"水上/冰上運動設施/游泳池",
    "data/Name":"北安國中多功能場地",
    "data/Addr":"臺北市中山區明水路325號",
    "data/OperationTel":"02-25325733",
    "data/WebUrl":"http://www.pajh.tp.edu.tw/",
    "data/ParkType":"一般及無障礙停車場",
    "data/EnableYear":103,
    "data/EnableMonth":6,
    "data/Introduction":"本校綜合大樓興建於99年8月，內含室內溫水游泳池、室內綜合球場暨地下停車場，為達成全方位多元化、活潑化、彈性化之學習發展願景，依促參法及相關法令之規定委託民間參與之經營管理，藉由民間機構靈活的經營理念和行銷策略，提供學校和社區使用者一個專業、創新的綜合育樂中心，成為學生和市民運動、休閒、學習的重要場所，並增進學生和市民學習效果，提升設施使用效率，落實全民化運動和學習網絡之一環，除達成培養市民終生運動的目標外，更能促使社區生涯學習、促進交流活動和社區融合之休閒活動中心，提高生活水準，希冀藉由委由民間經營達成推廣休閒運動、加強人才培訓、促進學習交流之目的，促成本校游泳池暨室內綜合球場永續經營使用的目標。\n本契約所稱之「營運管理標的物」為本校【室內溫水游泳池、室內綜合球場暨地下停車場】內部相關設備：\n（一）1樓游泳池：大廳控制室1間、辦公室2間（體育組辦公室除外）、訓練室1間、25m×14m游泳池一座、男、女廁所、盥洗室、更衣室及無障礙廁所\n                              等游泳池營運空間。\n（二）2樓：綜合球場一座、舞臺（含舞臺燈光及音響設施、音響控制室、後臺、貴賓室及學員休息室2間）及男、女廁所。\n（三）3樓機房、維修走道。\n（四）電梯：電梯2座。\n（五）地下室：停車場、游泳池池水加熱系統、淋浴加熱系統及熱水鍋爐、過濾系統、加藥系統等游泳池維持設備機房。\n",
    "data/Contest":"未曾在本場地舉辦運動賽事",
    "data/ContestIntro":"無",
    "data/Lng":121.5424776,
    "data/Photo1Url":"https://iplay.sa.gov.tw/Upload/photogym/20140728161220_P1070485.JPG",
    "data/Photo2Url":"https://iplay.sa.gov.tw/Upload/photogym/20140728161220_4VK9HU2E0BEKDRRVNYG9.jpg",
    "data/PassEasyEle":1,
    "data/PassEasyElePhotoUrl":"https://iplay.sa.gov.tw/Upload/passeasyphotogym/北安國中多功能場地無障礙電梯照片20190815123027.jpg",
    "data/PassEasyFuncOthers":"",
    "data/PassEasyParking":1,
    "data/PassEasyParkingPhotoUrl":"https://iplay.sa.gov.tw/Upload/passeasyphotogym/北安國中多功能場地無障礙停車位照片20190815123027.jpg",
    "data/PassEasyShower":1,
    "data/PassEasyShowerPhotoUrl":"https://iplay.sa.gov.tw/Upload/passeasyphotogym/北安國中多功能場地無障礙淋浴間照片20190815123027.jpg",
    "data/PassEasyToilet":1,
    "data/PassEasyToiletPhotoUrl":"https://iplay.sa.gov.tw/Upload/passeasyphotogym/北安國中多功能場地無障礙廁所照片20190815123027.jpg",
    "data/PassEasyWay":1,
    "data/PassEasyWayPhotoUrl":"https://iplay.sa.gov.tw/Upload/passeasyphotogym/北安國中多功能場地無障礙通道照片20190815123027.jpg",
    "data/WheelchairAuditorium":"0",
    "data/WheelchairAuditoriumPhotoUrl":"https://iplay.sa.gov.tw",
    "data/PublicTransport":"可搭乘公車\n21於北安國中站下車,33,35,42,72,102,208,213,222,247(含區),267,283,286(含區),內湖幹線(原287路),902,紅2,紅3(含區)於大直高中站下車\n",
    "data/Declaration":"",
    "data/DeclarationUrl":"https://www.facebook.com/BeiAnSports/",
    "data/Rate":6,
    "data/RateCount":2,
    "data/GymFuncData/0/ID":18773,
    "data/GymFuncData/0/Name":"籃球場",
    "data/GymFuncData/0/GymType":"球類運動設施/籃球場館",
    "data/GymFuncData/0/InOut":"室內設施",
    "data/GymFuncData/0/Floor":"2"
    }
  },
  {
    "type": "Feature",
    "geometry": {
       "type": "Point",
       "coordinates":  [ 25.04484454,25.04484454 ]
    },
    "properties": {
    "data/city":"臺北市",
    "data/district":"南港區",
    "data/ID":15436,
    "data/GymType":"水上/冰上運動設施/游泳池",
    "data/Name":"成德國中活動中心",
    "data/Addr":"臺北市南港區東新街108巷23號",
    "data/OperationTel":"02-27825000",
    "data/WebUrl":"http://www.cdjh.tp.edu.tw/",
    "data/ParkType":"一般及無障礙停車場",
    "data/EnableYear":99,
    "data/EnableMonth":4,
    "data/Introduction":"本場館於民國99年4月啟用，附有地下室停車場、一樓游泳池、二樓韻律教室及健身房、三樓綜合球場，平日上學期間供學生使用，課後及假日則委外經營。",
    "data/Contest":"曾在本場地舉辦國內運動賽事",
    "data/ContestIntro":"南港區桂花盃桌球賽等\n",
    "data/Lng":121.5875709,
    "data/Photo1Url":"https://iplay.sa.gov.tw/Upload/photogym/20140731142748_DSC05806.JPG",
    "data/Photo2Url":"https://iplay.sa.gov.tw/Upload/photogym/20140731142748_IMG_2110.JPG",
    "data/PassEasyEle":null,
    "data/PassEasyElePhotoUrl":"https://iplay.sa.gov.tw",
    "data/PassEasyFuncOthers":"",
    "data/PassEasyParking":null,
    "data/PassEasyParkingPhotoUrl":"https://iplay.sa.gov.tw",
    "data/PassEasyShower":null,
    "data/PassEasyShowerPhotoUrl":"https://iplay.sa.gov.tw",
    "data/PassEasyToilet":null,
    "data/PassEasyToiletPhotoUrl":"https://iplay.sa.gov.tw",
    "data/PassEasyWay":null,
    "data/PassEasyWayPhotoUrl":"https://iplay.sa.gov.tw",
    "data/WheelchairAuditorium":"",
    "data/WheelchairAuditoriumPhotoUrl":"https://iplay.sa.gov.tw",
    "data/PublicTransport":"",
    "data/Declaration":"",
    "data/DeclarationUrl":"",
    "data/Rate":7.3,
    "data/RateCount":3,
    "data/GymFuncData/0/ID":19040,
    "data/GymFuncData/0/Name":"籃球場",
    "data/GymFuncData/0/GymType":"球類運動設施/籃球場館",
    "data/GymFuncData/0/InOut":"室內設施",
    "data/GymFuncData/0/Floor":"3"
    }
  },
  {
    "type": "Feature",
    "geometry": {
       "type": "Point",
       "coordinates":  [ 25.04289704,25.04289704 ]
    },
    "properties": {
    "data/city":"臺北市",
    "data/district":"大安區",
    "data/ID":7710,
    "data/GymType":"阻力運動設施/舉重室/健力室",
    "data/Name":"臺北科技大學體適能運動中心(有氧訓練室)",
    "data/Addr":"臺北市大安區忠孝東路三段1號",
    "data/OperationTel":"02-27712171#3320",
    "data/WebUrl":"http://www.ntut.edu.tw",
    "data/ParkType":"無停車場",
    "data/EnableYear":85,
    "data/EnableMonth":7,
    "data/Introduction":"有氧訓練室設置13台跑步機、交叉訓練機6台、飛輪9台,並設有一組高級音響及2台電視機。",
    "data/Contest":"未曾在本場地舉辦運動賽事",
    "data/ContestIntro":"",
    "data/Lng":121.5344003,
    "data/Photo1Url":"https://iplay.sa.gov.tw/Upload/photogym/20140617165240_AerobicsRoom_2.jpg",
    "data/Photo2Url":"https://iplay.sa.gov.tw/Upload/photogym/20140617165240_有氧訓練室.jpg",
    "data/PassEasyEle":0,
    "data/PassEasyElePhotoUrl":"https://iplay.sa.gov.tw",
    "data/PassEasyFuncOthers":"",
    "data/PassEasyParking":0,
    "data/PassEasyParkingPhotoUrl":"https://iplay.sa.gov.tw",
    "data/PassEasyShower":0,
    "data/PassEasyShowerPhotoUrl":"https://iplay.sa.gov.tw",
    "data/PassEasyToilet":0,
    "data/PassEasyToiletPhotoUrl":"https://iplay.sa.gov.tw",
    "data/PassEasyWay":0,
    "data/PassEasyWayPhotoUrl":"https://iplay.sa.gov.tw",
    "data/WheelchairAuditorium":"0",
    "data/WheelchairAuditoriumPhotoUrl":"https://iplay.sa.gov.tw",
    "data/PublicTransport":"搭乘捷運：\n藍線【板南土城線】忠孝新生站 或 橘線【中和新蘆線】忠孝新生站，4號出口台北科技大學。\n‧各線公車：\n‧台北科技大學站--212、212直達車、232、262、299及605。 ‧忠孝新生路口站--72、109、115、214、222、226、280、290、505、642、665、668、672及松江新生幹線。\n‧搭火車：\n由台北火車站直接轉捷運【板南線】至忠孝新生站，4號出口台北科技大學。\n‧搭高鐵：\n由高鐵台北站直接轉捷運【板南線】至忠孝新生站，4號出口台北科技大學。\n‧自行開車：\n【國道一號】於建國北路/松江路交流道下(靠左走建國北路高架橋) \n於忠孝東路出口下(循右線右轉忠孝東路)續行約100公尺即達本校。\n【國道三號】於新店交流道接木柵交流道下辛亥路轉建國南路直走至忠孝東路口即達本校。",
    "data/Declaration":"並不對外開放",
    "data/DeclarationUrl":"",
    "data/Rate":0,
    "data/RateCount":0,
    "data/GymFuncData/0/ID":7597,
    "data/GymFuncData/0/Name":"跑步機",
    "data/GymFuncData/0/GymType":"其他/其他",
    "data/GymFuncData/0/InOut":"室內設施",
    "data/GymFuncData/0/Floor":"B1"
    }
  },
  {
    "type": "Feature",
    "geometry": {
       "type": "Point",
       "coordinates":  [ 25.0122731,25.0122731 ]
    },
    "properties": {
    "data/city":"臺北市",
    "data/district":"中正區",
    "data/ID":22720,
    "data/GymType":"水上/冰上運動設施/游泳池",
    "data/Name":"自來水園區親水體驗教育區",
    "data/Addr":"臺北市 中正區 思源街1號",
    "data/OperationTel":"02-83695003",
    "data/WebUrl":"https://waterpark.water.gov.taipei/",
    "data/ParkType":"無停車場",
    "data/EnableYear":96,
    "data/EnableMonth":7,
    "data/Introduction":"2樓:(1)溫水泳池全長25米(7水道，水深1.2至1.5米)、兒童池(水深60至75公分)、SPA水療池、蒸氣室、烤箱、冷熱水池；(2)健身房 4樓:有氧教室\n\n目前該整建中，整建至2026年。\n",
    "data/Contest":"未曾在本場地舉辦運動賽事",
    "data/ContestIntro":"",
    "data/Lng":121.5332294,
    "data/Photo1Url":"https://iplay.sa.gov.tw/Upload/photogym/20170614163251_05754F13TVZ3KOSBSE2Z.jpg",
    "data/Photo2Url":"https://iplay.sa.gov.tw/Upload/photogym/20170614163251_AVILN488611DD3HI5TND.jpg",
    "data/PassEasyEle":2,
    "data/PassEasyElePhotoUrl":"https://iplay.sa.gov.tw/Upload/passeasyphotogym/自來水園區親水體驗教育區無障礙電梯照片20191216145816.jpg",
    "data/PassEasyFuncOthers":"",
    "data/PassEasyParking":0,
    "data/PassEasyParkingPhotoUrl":"https://iplay.sa.gov.tw",
    "data/PassEasyShower":1,
    "data/PassEasyShowerPhotoUrl":"https://iplay.sa.gov.tw/Upload/passeasyphotogym/自來水園區親水體驗教育區無障礙淋浴間照片20191216142117.jpg",
    "data/PassEasyToilet":3,
    "data/PassEasyToiletPhotoUrl":"https://iplay.sa.gov.tw/Upload/passeasyphotogym/自來水園區親水體驗教育區無障礙廁所照片20190812161655.jpg",
    "data/PassEasyWay":1,
    "data/PassEasyWayPhotoUrl":"https://iplay.sa.gov.tw/Upload/passeasyphotogym/自來水園區親水體驗教育區無障礙通道照片20170615164121.jpg",
    "data/WheelchairAuditorium":"0",
    "data/WheelchairAuditoriumPhotoUrl":"https://iplay.sa.gov.tw",
    "data/PublicTransport":"捷運新店線公舘捷運站1號出口步行約5分鐘",
    "data/Declaration":"本場舘整修規劃中",
    "data/DeclarationUrl":"",
    "data/Rate":0,
    "data/RateCount":0,
    "data/GymFuncData/0/ID":27195,
    "data/GymFuncData/0/Name":"游泳池(館)",
    "data/GymFuncData/0/GymType":"水上/冰上運動設施/游泳池",
    "data/GymFuncData/0/InOut":"室內設施",
    "data/GymFuncData/0/Floor":"1"
    }
  },
  {
    "type": "Feature",
    "geometry": {
       "type": "Point",
       "coordinates":  [ 25.07829161,25.07829161 ]
    },
    "properties": {
    "data/city":"臺北市",
    "data/district":"內湖區",
    "data/ID":14619,
    "data/GymType":"球類運動設施/籃球場館",
    "data/Name":"臺北市內湖運動中心",
    "data/Addr":"臺北市 內湖區 洲子街12號",
    "data/OperationTel":"02-26562869",
    "data/WebUrl":"https://nhsc.cyc.org.tw/",
    "data/ParkType":"一般及無障礙停車場",
    "data/EnableYear":97,
    "data/EnableMonth":7,
    "data/Introduction":"本場(館)興建於民國97年，位於台北市內湖區洲子街12號內，提供民眾球類.體適能.游泳與各類教室研習課程,周邊另有兒童遊戲設施、戶外體健設施等休閒設施。",
    "data/Contest":"曾在本場地舉辦國內運動賽事",
    "data/ContestIntro":"101年全國攀登錦標賽暨國手選拔賽\n102年全國攀登錦標賽暨國手選拔賽\n102年壁球全國錦標賽\n",
    "data/Lng":121.5752006,
    "data/Photo1Url":"https://iplay.sa.gov.tw/Upload/photogym/20140718171821_1406884770741.jpg",
    "data/Photo2Url":"https://iplay.sa.gov.tw/Upload/photogym/20140718171821_7OBK6.jpg",
    "data/PassEasyEle":1,
    "data/PassEasyElePhotoUrl":"https://iplay.sa.gov.tw/Upload/passeasyphotogym/臺北市內湖運動中心無障礙電梯照片20191224173549.jpg",
    "data/PassEasyFuncOthers":"",
    "data/PassEasyParking":2,
    "data/PassEasyParkingPhotoUrl":"https://iplay.sa.gov.tw/Upload/passeasyphotogym/臺北市內湖運動中心無障礙停車位照片20191224173549.jpg",
    "data/PassEasyShower":0,
    "data/PassEasyShowerPhotoUrl":"https://iplay.sa.gov.tw",
    "data/PassEasyToilet":6,
    "data/PassEasyToiletPhotoUrl":"https://iplay.sa.gov.tw/Upload/passeasyphotogym/臺北市內湖運動中心無障礙廁所照片20191224173549.jpg",
    "data/PassEasyWay":0,
    "data/PassEasyWayPhotoUrl":"https://iplay.sa.gov.tw",
    "data/WheelchairAuditorium":"0",
    "data/WheelchairAuditoriumPhotoUrl":"https://iplay.sa.gov.tw",
    "data/PublicTransport":"捷運文湖線，港墘捷運站2號出口沿內湖高工至洲子街",
    "data/Declaration":"",
    "data/DeclarationUrl":"",
    "data/Rate":5,
    "data/RateCount":7,
    "data/GymFuncData/0/ID":16863,
    "data/GymFuncData/0/Name":"羽球場(館)",
    "data/GymFuncData/0/GymType":"球類運動設施/羽球場館",
    "data/GymFuncData/0/InOut":"室內設施",
    "data/GymFuncData/0/Floor":"10"
    }
  },
  {
    "type": "Feature",
    "geometry": {
       "type": "Point",
       "coordinates":  [ 24.9970088,24.9970088 ]
    },
    "properties": {
    "data/city":"臺北市",
    "data/district":"文山區",
    "data/ID":9686,
    "data/GymType":"阻力運動設施/多功能健身房/體適能中心（此空間中具有兩種以上之阻力運動器材設備）",
    "data/Name":"臺北市文山運動中心",
    "data/Addr":"臺北市 文山區 興隆路三段222號",
    "data/OperationTel":"02-22308268",
    "data/WebUrl":"https://wssc.cyc.org.tw/",
    "data/ParkType":"一般及無障礙停車場",
    "data/EnableYear":99,
    "data/EnableMonth":8,
    "data/Introduction":"文山運動中心，為臺灣臺北市第12座運動中心。樓地板面積12,500平方公尺，地下二層、地上8層。2010年8月21日試營運，2010年8月29日正式啟用，目前承包經營單位是中國青年救國團。主要服務客群為大文山地區之市民。     ",
    "data/Contest":"曾在本場地舉辦國內運動賽事",
    "data/ContestIntro":"全國運動會-撞球比賽場地\n臺北市舞蹈協會青年盃、中正盃\n明興里親子籃球賽\n海巡署籃球賽\n文山區公所桌球賽",
    "data/Lng":121.5596867,
    "data/Photo1Url":"https://iplay.sa.gov.tw/Upload/photogym/20140620123524_167903574_m.jpg",
    "data/Photo2Url":"https://iplay.sa.gov.tw/Upload/photogym/20140620123524_swfupload509f182fe1dcd.jpg",
    "data/PassEasyEle":1,
    "data/PassEasyElePhotoUrl":"https://iplay.sa.gov.tw/Upload/passeasyphotogym/臺北市文山運動中心無障礙電梯照片20190812173414.jpg",
    "data/PassEasyFuncOthers":"無",
    "data/PassEasyParking":7,
    "data/PassEasyParkingPhotoUrl":"https://iplay.sa.gov.tw/Upload/passeasyphotogym/臺北市文山運動中心無障礙停車位照片20190812173414.jpg",
    "data/PassEasyShower":2,
    "data/PassEasyShowerPhotoUrl":"https://iplay.sa.gov.tw/Upload/passeasyphotogym/臺北市文山運動中心無障礙淋浴間照片20190812173414.jpg",
    "data/PassEasyToilet":5,
    "data/PassEasyToiletPhotoUrl":"https://iplay.sa.gov.tw/Upload/passeasyphotogym/臺北市文山運動中心無障礙廁所照片20190812173414.jpg",
    "data/PassEasyWay":3,
    "data/PassEasyWayPhotoUrl":"https://iplay.sa.gov.tw/Upload/passeasyphotogym/臺北市文山運動中心無障礙通道照片20190812173414.jpg",
    "data/WheelchairAuditorium":"0",
    "data/WheelchairAuditoriumPhotoUrl":"https://iplay.sa.gov.tw",
    "data/PublicTransport":"公車\n下車站名：文山運動中心、萬芳路口或警察學校\n路線A：台北車站 - 公館 - 政大 - 動物園，搭乘236、237、676、530、606、671、0南、棕11\n路線B：新店 - 景美 - 石碇、深坑，搭乘253、671、棕2、棕3、棕6、棕11、棕12、綠2\n路線C：中永和，搭乘綠2 @ 路線D：市政府，搭乘611 @ 路線E：行天宮，搭乘298\n捷運\n木柵線〈棕線〉：至萬芳醫院站下車\n板南線〈藍線〉：至忠孝復興站，轉搭乘木柵線至萬芳醫院站下車\n淡水 - 新店線：至台北火車站，轉搭板南線至忠孝復興站，轉搭乘木柵線至萬芳醫院站下車\n出站後往左邊走，步行約5-6分鐘即可到達",
    "data/Declaration":"場館整建中，2010年已啟用。",
    "data/DeclarationUrl":"",
    "data/Rate":4.7,
    "data/RateCount":10,
    "data/GymFuncData/0/ID":10740,
    "data/GymFuncData/0/Name":"游泳池(館)",
    "data/GymFuncData/0/GymType":"水上/冰上運動設施/游泳池",
    "data/GymFuncData/0/InOut":"室內設施",
    "data/GymFuncData/0/Floor":"3"
    }
  },
  {
    "type": "Feature",
    "geometry": {
       "type": "Point",
       "coordinates":  [ 25.1168977,25.1168977 ]
    },
    "properties": {
    "data/city":"臺北市",
    "data/district":"北投區",
    "data/ID":8042,
    "data/GymType":"球類運動設施/籃球場館",
    "data/Name":"臺北市北投運動中心",
    "data/Addr":"臺北市 北投區 石牌路1段39巷100號",
    "data/OperationTel":"02-28202880",
    "data/WebUrl":"http://www.btsport.org.tw/",
    "data/ParkType":"一般及無障礙停車場",
    "data/EnableYear":93,
    "data/EnableMonth":6,
    "data/Introduction":"本運動中心處在空氣清新、 環境優美的石牌公園內， 提供專業運動顧問群、嶄新的游泳池、 各類球場、完善的健身運動設施、 另精心設計多種課程、專屬停車場。\n\n1.設有YouBike北投運動中心站。2.周邊有汽機車停車格供民眾使用。3.籃球場管有電子計分板。4.攀岩場之攀岩塔1座，寬3公尺；攀岩壁面3面，寬5.5公尺。",
    "data/Contest":"未曾在本場地舉辦運動賽事",
    "data/ContestIntro":"",
    "data/Lng":121.5096956,
    "data/Photo1Url":"https://iplay.sa.gov.tw/Upload/photogym/20140618145326_Q255H.jpg",
    "data/Photo2Url":"https://iplay.sa.gov.tw/Upload/photogym/20140618145326_北投0801.jpg",
    "data/PassEasyEle":3,
    "data/PassEasyElePhotoUrl":"https://iplay.sa.gov.tw/Upload/passeasyphotogym/臺北市北投運動中心無障礙電梯照片20190812115012.jpg",
    "data/PassEasyFuncOthers":"",
    "data/PassEasyParking":3,
    "data/PassEasyParkingPhotoUrl":"https://iplay.sa.gov.tw/Upload/passeasyphotogym/臺北市北投運動中心無障礙停車位照片20190812115012.jpg",
    "data/PassEasyShower":0,
    "data/PassEasyShowerPhotoUrl":"https://iplay.sa.gov.tw",
    "data/PassEasyToilet":4,
    "data/PassEasyToiletPhotoUrl":"https://iplay.sa.gov.tw/Upload/passeasyphotogym/臺北市北投運動中心無障礙廁所照片20190812115012.jpg",
    "data/PassEasyWay":1,
    "data/PassEasyWayPhotoUrl":"https://iplay.sa.gov.tw/Upload/passeasyphotogym/臺北市北投運動中心無障礙通道照片20191224171257.jpg",
    "data/WheelchairAuditorium":"0",
    "data/WheelchairAuditoriumPhotoUrl":"https://iplay.sa.gov.tw",
    "data/PublicTransport":"捷運\n捷運石牌站－石牌站一號出口往承德方向沿石牌路一段行走，至致遠二路右轉後５分鐘，左轉至石牌公園即可進入。",
    "data/Declaration":"",
    "data/DeclarationUrl":"",
    "data/Rate":7.2,
    "data/RateCount":10,
    "data/GymFuncData/0/ID":16873,
    "data/GymFuncData/0/Name":"籃球場",
    "data/GymFuncData/0/GymType":"球類運動設施/籃球場館",
    "data/GymFuncData/0/InOut":"室內設施",
    "data/GymFuncData/0/Floor":"2"
    }
  },
  {
    "type": "Feature",
    "geometry": {
       "type": "Point",
       "coordinates":  [ 25.04857699,25.04857699 ]
    },
    "properties": {
    "data/city":"臺北市",
    "data/district":"松山區",
    "data/ID":8147,
    "data/GymType":"水上/冰上運動設施/游泳池",
    "data/Name":"臺北市松山運動中心",
    "data/Addr":"臺北市 松山區 敦化北路1號",
    "data/OperationTel":"02-66176789",
    "data/WebUrl":"http://sssc.com.tw/",
    "data/ParkType":"一般及無障礙停車場",
    "data/EnableYear":98,
    "data/EnableMonth":11,
    "data/Introduction":"松山運動中心於2009年11月1日開幕，是臺北市第九座啟用的市民運動中心，提供居民俱樂部般的設備及優質的運動環境。中心擁有挑高的鯨魚造型環保綠建築場館及多功能休閒運動設施，並規劃有體適能健身中心、舞蹈教室，還有兩座游泳池及十公尺跳水台，一座基本的二十五公尺游泳池可供民眾休閒使用，另一座五十公尺游泳池是台北市唯一可以作跳水、水球、水中芭蕾訓練使用的游泳池，亦提供多項室內水上課程，如：獨木舟、滑水、潛水等。並提供運動選手培訓及舉辦國內外運動賽事。",
    "data/Contest":"曾在本場地舉辦國際運動賽事及國內運動賽事",
    "data/ContestIntro":"99年全國主委盃水球錦標賽\n99年全國輕艇水球錦標賽\n99年育幼院運動會游泳競賽主場地\n2010年第五屆世界盃唐氏症游泳錦標賽\n2011松運MIZUNO盃全國分齡游泳錦標賽\n2011失親兒童夏季體育營暨育幼院運動會游泳競賽主場地\n100年全國輕艇水球錦標賽\n100年臺北市軍警消海巡游泳賽\n100學年度全國中等學校身心障礙者會長盃游泳錦標賽\n2012松運MIZUNO盃全國分齡游泳錦標賽\n101年全國輕艇水球錦標賽\n101年臺北市軍警消海巡游泳賽\n2013松運MIZUNO盃全國分齡游泳錦標賽\n102年全國輕艇水球錦標賽\n102年度全國運動會水球比賽主場地\n102年臺北市軍警消海巡游泳賽\n2014松運MIZUNO盃全國分齡游泳錦標賽\n2015松運MIZUNO盃全國分齡游泳錦標賽\n2016松運MIZUNO盃全國分齡游泳錦標賽\n2017松運MIZUNO盃全國分齡游泳錦標賽\n",
    "data/Lng":121.5501916,
    "data/Photo1Url":"https://iplay.sa.gov.tw/Upload/photogym/20140618181246_松山運動中心全景圖.gif",
    "data/Photo2Url":"https://iplay.sa.gov.tw/Upload/photogym/20140618181246__MG_8017-001.JPG",
    "data/PassEasyEle":1,
    "data/PassEasyElePhotoUrl":"https://iplay.sa.gov.tw/Upload/passeasyphotogym/台北市松山運動中心無障礙電梯照片20191219143032.JPG",
    "data/PassEasyFuncOthers":"",
    "data/PassEasyParking":2,
    "data/PassEasyParkingPhotoUrl":"https://iplay.sa.gov.tw/Upload/passeasyphotogym/台北市松山運動中心無障礙停車位照片20190812155658.jpg",
    "data/PassEasyShower":2,
    "data/PassEasyShowerPhotoUrl":"https://iplay.sa.gov.tw/Upload/passeasyphotogym/台北市松山運動中心無障礙淋浴間照片20190812155658.jpg",
    "data/PassEasyToilet":2,
    "data/PassEasyToiletPhotoUrl":"https://iplay.sa.gov.tw/Upload/passeasyphotogym/台北市松山運動中心無障礙廁所照片20190812155658.jpg",
    "data/PassEasyWay":1,
    "data/PassEasyWayPhotoUrl":"https://iplay.sa.gov.tw/Upload/passeasyphotogym/台北市松山運動中心無障礙通道照片20190812155658.jpg",
    "data/WheelchairAuditorium":"0",
    "data/WheelchairAuditoriumPhotoUrl":"https://iplay.sa.gov.tw",
    "data/PublicTransport":"捷運\n捷運台北小巨蛋站:往西走南京東路四段朝敦化北路前進>於敦化北路向左轉八德路約100公尺。\n\nYoubike\n臺北田徑場、社教館。",
    "data/Declaration":"",
    "data/DeclarationUrl":"",
    "data/Rate":5.8,
    "data/RateCount":9,
    "data/GymFuncData/0/ID":11191,
    "data/GymFuncData/0/Name":"游泳池",
    "data/GymFuncData/0/GymType":"水上/冰上運動設施/游泳池",
    "data/GymFuncData/0/InOut":"室內設施",
    "data/GymFuncData/0/Floor":"1"
    }
  },
  {
    "type": "Feature",
    "geometry": {
       "type": "Point",
       "coordinates":  [ 25.03184811,25.03184811 ]
    },
    "properties": {
    "data/city":"臺北市",
    "data/district":"信義區",
    "data/ID":7730,
    "data/GymType":"球類運動設施/籃球場館",
    "data/Name":"臺北市信義運動中心",
    "data/Addr":"臺北市 信義區 松勤街100號",
    "data/OperationTel":"02-87861911",
    "data/WebUrl":"https://xysc.teamxports.com/",
    "data/ParkType":"無停車場",
    "data/EnableYear":98,
    "data/EnableMonth":5,
    "data/Introduction":"信義運動中心位於101信義商圈、世貿大樓以及臺北市政府、信義區行政中心一帶，以商業娛樂、公務行政較為發達，周邊尚有國父紀念館、信義分局、臺北醫學大學附設醫院、鄰近學校等，且因捷運信義線，更加提升中心交通便利性與市民服務。\n       臺北市信義運動中心自98年5月28日啟用至今，以「樂活、運動、新生活」為經營主軸，大力改善美化場館環境及設施（如中心射箭場、壁球室、體適能中心、飛輪教室），不斷提昇中心品質，辦理各項活動，鼓勵並積極擴展各種不同運動喜好的市民參與休閒、體驗運動的機會，以「處處能運動」、「人人愛運動」、「時時可運動」為目標，進而成為最優質的運動場館。",
    "data/Contest":"未曾在本場地舉辦運動賽事",
    "data/ContestIntro":"無",
    "data/Lng":121.5665531,
    "data/Photo1Url":"https://iplay.sa.gov.tw/Upload/photogym/20140617171939_U9JNY.jpg",
    "data/Photo2Url":"https://iplay.sa.gov.tw/Upload/photogym/20140617171939_P10A1.jpg",
    "data/PassEasyEle":1,
    "data/PassEasyElePhotoUrl":"https://iplay.sa.gov.tw/Upload/passeasyphotogym/臺北市信義運動中心無障礙電梯照片20191219142841.jpg",
    "data/PassEasyFuncOthers":"",
    "data/PassEasyParking":0,
    "data/PassEasyParkingPhotoUrl":"https://iplay.sa.gov.tw",
    "data/PassEasyShower":0,
    "data/PassEasyShowerPhotoUrl":"https://iplay.sa.gov.tw",
    "data/PassEasyToilet":5,
    "data/PassEasyToiletPhotoUrl":"https://iplay.sa.gov.tw/Upload/passeasyphotogym/臺北市信義運動中心無障礙廁所照片20191219142912.jpg",
    "data/PassEasyWay":2,
    "data/PassEasyWayPhotoUrl":"https://iplay.sa.gov.tw/Upload/passeasyphotogym/臺北市信義運動中心無障礙通道照片20190812160251.jpg",
    "data/WheelchairAuditorium":"0",
    "data/WheelchairAuditoriumPhotoUrl":"https://iplay.sa.gov.tw",
    "data/PublicTransport":"搭乘捷運板南線(藍線)至台北市政府站，沿松仁路直行10~15分鐘，過信義路五段後右轉松勤街即可到達。\n或搭捷運信義象山線至101世貿大樓站三號出口，後於松智路口右轉進松勤街步行約為3~5分鐘。",
    "data/Declaration":"",
    "data/DeclarationUrl":"",
    "data/Rate":6.1,
    "data/RateCount":14,
    "data/GymFuncData/0/ID":8066,
    "data/GymFuncData/0/Name":"多功能球場",
    "data/GymFuncData/0/GymType":"球類運動設施/籃球場館",
    "data/GymFuncData/0/InOut":"室內設施",
    "data/GymFuncData/0/Floor":"6"
    }
  },
  {
    "type": "Feature",
    "geometry": {
       "type": "Point",
       "coordinates":  [ 25.04751753,25.04751753 ]
    },
    "properties": {
    "data/city":"臺北市",
    "data/district":"萬華區",
    "data/ID":8100,
    "data/GymType":"球類運動設施/籃球場館",
    "data/Name":"臺北市萬華運動中心",
    "data/Addr":"臺北市 萬華區 西寧南路6之1號",
    "data/OperationTel":"02-23759900",
    "data/WebUrl":"http://whsc.com.tw/",
    "data/ParkType":"一般及無障礙停車場",
    "data/EnableYear":96,
    "data/EnableMonth":5,
    "data/Introduction":"中心設備規劃在游泳池部分設有溫水游泳池、水療池、三溫暖設施，市民活動空間設有民眾閱覽室及兒童遊戲室，提供老少咸宜的休閒場所，運動項目部分設有健身中心、舞蹈教室、多功能球場、桌球練習場、攀岩場及高爾夫球練習區，高爾夫球設備引進新型模擬設備，提供市民新穎的運動設施，戶外多功能運動場可提供多元化運動項目的複合式場所，營造出一個結合環保節能及多元化運動項目的優質休閒環境。 中心規劃一系列運動課程、公益講座、研習課程、回饋活動等，提供多元化的服務，在運動場域結合駐場專業教練，提供民眾各項運動設施專業的諮詢，給予市民最直接的回饋，讓市民藉由運動休閒，進而改善體能並豐富生活，提升生活品質及促進身心靈健康。",
    "data/Contest":"未曾在本場地舉辦運動賽事",
    "data/ContestIntro":"無",
    "data/Lng":121.5067506,
    "data/Photo1Url":"https://iplay.sa.gov.tw/Upload/photogym/20140618160453_IMAG6907.jpg",
    "data/Photo2Url":"https://iplay.sa.gov.tw/Upload/photogym/20140618160453_XDE79.jpg",
    "data/PassEasyEle":1,
    "data/PassEasyElePhotoUrl":"https://iplay.sa.gov.tw/Upload/passeasyphotogym/臺北市萬華運動中心無障礙電梯照片20190812174001.jpg",
    "data/PassEasyFuncOthers":"",
    "data/PassEasyParking":1,
    "data/PassEasyParkingPhotoUrl":"https://iplay.sa.gov.tw/Upload/passeasyphotogym/臺北市萬華運動中心無障礙停車位照片20190812174001.jpg",
    "data/PassEasyShower":0,
    "data/PassEasyShowerPhotoUrl":"https://iplay.sa.gov.tw",
    "data/PassEasyToilet":5,
    "data/PassEasyToiletPhotoUrl":"https://iplay.sa.gov.tw/Upload/passeasyphotogym/臺北市萬華運動中心無障礙廁所照片20190812174001.jpg",
    "data/PassEasyWay":1,
    "data/PassEasyWayPhotoUrl":"https://iplay.sa.gov.tw/Upload/passeasyphotogym/臺北市萬華運動中心無障礙通道照片20190812174001.jpg",
    "data/WheelchairAuditorium":"0",
    "data/WheelchairAuditoriumPhotoUrl":"https://iplay.sa.gov.tw",
    "data/PublicTransport":"北門站1號出口，由塔城街往中華路一段前行，於洛陽街右轉直行約8分鐘，即可到達本中心。 西門站6號出口，沿峨嵋街右轉西寧南路方向，步行約10分鐘即可到達本中心。",
    "data/Declaration":"",
    "data/DeclarationUrl":"",
    "data/Rate":6.3,
    "data/RateCount":7,
    "data/GymFuncData/0/ID":8154,
    "data/GymFuncData/0/Name":"籃球場",
    "data/GymFuncData/0/GymType":"球類運動設施/籃球場館",
    "data/GymFuncData/0/InOut":"室內設施",
    "data/GymFuncData/0/Floor":"4"
    }
  },
  {
    "type": "Feature",
    "geometry": {
       "type": "Point",
       "coordinates":  [ 24.98940328,24.98940328 ]
    },
    "properties": {
    "data/city":"臺北市",
    "data/district":"文山區",
    "data/ID":15481,
    "data/GymType":"球類運動設施/籃球場館",
    "data/Name":"萬興國小運動中心",
    "data/Addr":"臺北市文山區秀明路2段114號",
    "data/OperationTel":"02-29381721#124",
    "data/WebUrl":"http://www.wxes.tp.edu.tw/",
    "data/ParkType":"一般及無障礙停車場",
    "data/EnableYear":100,
    "data/EnableMonth":11,
    "data/Introduction":"本場館座落於國立政治大學旁，為地下兩層地上四層的運動中心，平日學校上班上課時段為本校教學使用場地，下午四點放學後由恆動力有限公司承租經營，本校地下兩層皆為汽機車停車場，計有234個小型車停車格，190個機車格。",
    "data/Contest":"未曾在本場地舉辦運動賽事",
    "data/ContestIntro":"",
    "data/Lng":121.5764773,
    "data/Photo1Url":"https://iplay.sa.gov.tw/Upload/photogym/20140801152750_mobile7c67db8a-fa50-47a9-b962-81c32157e228.jpg",
    "data/Photo2Url":"https://iplay.sa.gov.tw/Upload/photogym/20140801152750_DSCN8377.JPG",
    "data/PassEasyEle":1,
    "data/PassEasyElePhotoUrl":"https://iplay.sa.gov.tw/Upload/passeasyphotogym/萬興國小運動中心無障礙電梯照片20190314111952.jpg",
    "data/PassEasyFuncOthers":"",
    "data/PassEasyParking":5,
    "data/PassEasyParkingPhotoUrl":"https://iplay.sa.gov.tw/Upload/passeasyphotogym/萬興國小運動中心無障礙停車位照片20190314111952.jpg",
    "data/PassEasyShower":1,
    "data/PassEasyShowerPhotoUrl":"https://iplay.sa.gov.tw/Upload/passeasyphotogym/萬興國小運動中心無障礙淋浴間照片20190813142110.jpg",
    "data/PassEasyToilet":3,
    "data/PassEasyToiletPhotoUrl":"https://iplay.sa.gov.tw/Upload/passeasyphotogym/萬興國小運動中心無障礙廁所照片20190813142110.jpg",
    "data/PassEasyWay":1,
    "data/PassEasyWayPhotoUrl":"https://iplay.sa.gov.tw/Upload/passeasyphotogym/萬興國小運動中心無障礙通道照片20190314111952.jpg",
    "data/WheelchairAuditorium":"0",
    "data/WheelchairAuditoriumPhotoUrl":"https://iplay.sa.gov.tw",
    "data/PublicTransport":"搭客運:\n可搭乘236.綠1.綜8.等路線道萬興國小站下車及達。",
    "data/Declaration":"",
    "data/DeclarationUrl":"",
    "data/Rate":6,
    "data/RateCount":9,
    "data/GymFuncData/0/ID":19108,
    "data/GymFuncData/0/Name":"籃球場",
    "data/GymFuncData/0/GymType":"球類運動設施/籃球場館",
    "data/GymFuncData/0/InOut":"室內設施",
    "data/GymFuncData/0/Floor":"4"
    }
  },
  {
    "type": "Feature",
    "geometry": {
       "type": "Point",
       "coordinates":  [ 25.12660924,25.12660924 ]
    },
    "properties": {
    "data/city":"臺北市",
    "data/district":"北投區",
    "data/ID":15422,
    "data/GymType":"球類運動設施/籃球場館",
    "data/Name":"關渡國小運動中心",
    "data/Addr":"臺北市北投區中央北路4段581號",
    "data/OperationTel":"02-28975205",
    "data/WebUrl":"http://www.kdps.tp.edu.tw/",
    "data/ParkType":"一般及無障礙停車場",
    "data/EnableYear":92,
    "data/EnableMonth":2,
    "data/Introduction":"本場(館)興建於民國92年，位於捷運關渡站2號出口旁，地點適當，交通方便，緊鄰關渡捷運站，捷運及接駁公車便捷；另外四周沒有建築物阻礙視線，因此空氣流暢，光線良好。本校體育館周邊設有平面停車場，車位充足且機車也方便停放。室內體育館、游泳池，皆設施完備。\n",
    "data/Contest":"曾在本場地舉辦國內運動賽事",
    "data/ContestIntro":"2009年臺北市國民小學運動會北區游泳比賽主場地",
    "data/Lng":121.4662613,
    "data/Photo1Url":"https://iplay.sa.gov.tw/Upload/photogym/20140731121328_DSC028030000.jpg",
    "data/Photo2Url":"https://iplay.sa.gov.tw/Upload/photogym/20140731121328_2013121418580610.jpg",
    "data/PassEasyEle":1,
    "data/PassEasyElePhotoUrl":"https://iplay.sa.gov.tw/Upload/passeasyphotogym/關渡國小活動中心無障礙電梯照片20190815104858.jpg",
    "data/PassEasyFuncOthers":"",
    "data/PassEasyParking":2,
    "data/PassEasyParkingPhotoUrl":"https://iplay.sa.gov.tw/Upload/passeasyphotogym/關渡國小活動中心無障礙停車位照片20190815104858.jpg",
    "data/PassEasyShower":2,
    "data/PassEasyShowerPhotoUrl":"https://iplay.sa.gov.tw/Upload/passeasyphotogym/關渡國小活動中心無障礙淋浴間照片20190815104858.jpg",
    "data/PassEasyToilet":2,
    "data/PassEasyToiletPhotoUrl":"https://iplay.sa.gov.tw/Upload/passeasyphotogym/關渡國小活動中心無障礙廁所照片20190815104858.JPG",
    "data/PassEasyWay":3,
    "data/PassEasyWayPhotoUrl":"https://iplay.sa.gov.tw/Upload/passeasyphotogym/關渡國小活動中心無障礙通道照片20190815104858.JPG",
    "data/WheelchairAuditorium":"1",
    "data/WheelchairAuditoriumPhotoUrl":"https://iplay.sa.gov.tw/Upload/passeasyphotogym/關渡國小活動中心輪椅觀眾席位照片20190815104858.jpg",
    "data/PublicTransport":"交通方式：\n搭公車：\n1.公車302、223、632到關渡國小站下車，\n2.公車22、13捷運淡水線關渡站下車\n搭捷運：\n1.捷運淡水線關渡站下，2號出口即達。",
    "data/Declaration":"",
    "data/DeclarationUrl":"http://www.kdps.tp.edu.tw/mainnews/index.asp",
    "data/Rate":0,
    "data/RateCount":0,
    "data/GymFuncData/0/ID":19281,
    "data/GymFuncData/0/Name":"羽球場(館)",
    "data/GymFuncData/0/GymType":"球類運動設施/羽球場館",
    "data/GymFuncData/0/InOut":"室內設施",
    "data/GymFuncData/0/Floor":"6"
    }
  },
  {
    "type": "Feature",
    "geometry": {
       "type": "Point",
       "coordinates":  [ 25.04301229,25.04301229 ]
    },
    "properties": {
    "data/city":"臺北市",
    "data/district":"中正區",
    "data/ID":5166,
    "data/GymType":"水上/冰上運動設施/游泳池",
    "data/Name":"成功高中運動中心(舞動陽光有限公司成功營業所)",
    "data/Addr":"臺北市中正區濟南路1段71號",
    "data/OperationTel":"02-23216256#276",
    "data/WebUrl":"http://www.cksh.tp.edu.tw",
    "data/ParkType":"一般及無障礙停車場",
    "data/EnableYear":98,
    "data/EnableMonth":12,
    "data/Introduction":"本場(館)興建於民國98年，位於中正區，b1游泳池(25mx15m)、5樓活動中心、8樓綜合球場(12面羽球場及3面籃球排球場)等。",
    "data/Contest":"曾在本場地舉辦國際運動賽事",
    "data/ContestIntro":"2009年聽障奧運手球練習場",
    "data/Lng":121.5230155,
    "data/Photo1Url":"https://iplay.sa.gov.tw/Upload/photogym/20140609115648_picmain.jpg",
    "data/Photo2Url":"https://iplay.sa.gov.tw/Upload/photogym/20140609115648_IMG_1237.JPG",
    "data/PassEasyEle":1,
    "data/PassEasyElePhotoUrl":"https://iplay.sa.gov.tw/Upload/passeasyphotogym/成功高中運動中心無障礙電梯照片20200529172500.JPG",
    "data/PassEasyFuncOthers":"",
    "data/PassEasyParking":2,
    "data/PassEasyParkingPhotoUrl":"https://iplay.sa.gov.tw/Upload/passeasyphotogym/成功高中運動中心無障礙停車位照片20200529172500.JPG",
    "data/PassEasyShower":1,
    "data/PassEasyShowerPhotoUrl":"https://iplay.sa.gov.tw/Upload/passeasyphotogym/成功高中運動中心無障礙淋浴間照片20200529172625.JPG",
    "data/PassEasyToilet":1,
    "data/PassEasyToiletPhotoUrl":"https://iplay.sa.gov.tw/Upload/passeasyphotogym/成功高中運動中心無障礙廁所照片20200529172625.JPG",
    "data/PassEasyWay":1,
    "data/PassEasyWayPhotoUrl":"https://iplay.sa.gov.tw/Upload/passeasyphotogym/成功高中運動中心無障礙通道照片20200529172500.JPG",
    "data/WheelchairAuditorium":"1",
    "data/WheelchairAuditoriumPhotoUrl":"https://iplay.sa.gov.tw/Upload/passeasyphotogym/成功高中運動中心輪椅觀眾席位照片20200529172625.JPG",
    "data/PublicTransport":"捷運善導寺站",
    "data/Declaration":"",
    "data/DeclarationUrl":"",
    "data/Rate":7.9,
    "data/RateCount":17,
    "data/GymFuncData/0/ID":7841,
    "data/GymFuncData/0/Name":"籃球場",
    "data/GymFuncData/0/GymType":"球類運動設施/籃球場館",
    "data/GymFuncData/0/InOut":"室內設施",
    "data/GymFuncData/0/Floor":"5"
    }
  },
  {
    "type": "Feature",
    "geometry": {
       "type": "Point",
       "coordinates":  [ 25.08935926,25.08935926 ]
    },
    "properties": {
    "data/city":"臺北市",
    "data/district":"士林區",
    "data/ID":10079,
    "data/GymType":"球類運動設施/籃球場館",
    "data/Name":"臺北市士林運動中心",
    "data/Addr":"臺北市 士林區 士商路1號",
    "data/OperationTel":"02-28806066",
    "data/WebUrl":"http://www.slsc-taipei.org/News.aspx",
    "data/ParkType":"一般及無障礙停車場",
    "data/EnableYear":97,
    "data/EnableMonth":2,
    "data/Introduction":"01.視覺穿透\n採開放式彈性設計，配合落地帷幕，窗外即是廣場及承德公園，達到視覺穿透效果，提升視覺空間。\n\n02.打破傳統\n將游泳池由過去在地下室的慣例搬上3樓，提供泳客享有陽光照射的溫水游泳樂趣。讓泳客可在有陽光照射的室內泳池游泳運動。\n\n03.建築採RC結構\n為了讓樓地板能確實承載泳池約350噸的水，從地下樓層至泳池所在的樓，建築採承載力大的RC結構。在3樓以上使用全鋼構。",
    "data/Contest":"曾在本場地舉辦國際運動賽事",
    "data/ContestIntro":"2009年台北聽障奧運練習場地",
    "data/Lng":121.5215403,
    "data/Photo1Url":"https://iplay.sa.gov.tw/Upload/photogym/20140624094002_MTJ84PKTV66H4WPZE1O7.jpg",
    "data/Photo2Url":"https://iplay.sa.gov.tw/Upload/photogym/20140624094002_0YFTI.jpg",
    "data/PassEasyEle":2,
    "data/PassEasyElePhotoUrl":"https://iplay.sa.gov.tw/Upload/passeasyphotogym/臺北市士林運動中心無障礙電梯照片20191224171829.jpg",
    "data/PassEasyFuncOthers":"水中升降倚",
    "data/PassEasyParking":2,
    "data/PassEasyParkingPhotoUrl":"https://iplay.sa.gov.tw/Upload/passeasyphotogym/臺北市士林運動中心無障礙停車位照片20170920142104.jpg",
    "data/PassEasyShower":2,
    "data/PassEasyShowerPhotoUrl":"https://iplay.sa.gov.tw/Upload/passeasyphotogym/臺北市士林運動中心無障礙淋浴間照片20191224174821.jpg",
    "data/PassEasyToilet":9,
    "data/PassEasyToiletPhotoUrl":"https://iplay.sa.gov.tw/Upload/passeasyphotogym/臺北市士林運動中心無障礙廁所照片20170920142104.jpg",
    "data/PassEasyWay":1,
    "data/PassEasyWayPhotoUrl":"https://iplay.sa.gov.tw/Upload/passeasyphotogym/臺北市士林運動中心無障礙通道照片20170920142104.jpg",
    "data/WheelchairAuditorium":"0",
    "data/WheelchairAuditoriumPhotoUrl":"https://iplay.sa.gov.tw",
    "data/PublicTransport":"劍潭站－淡水線或北投線至劍潭站1號出口→右轉沿基河路直行至大南路交叉口左轉→步行約10分鐘(承德路與士商路口)，即可看到士林運動中心。",
    "data/Declaration":"106.08.31重新整修開幕開放民眾使用～",
    "data/DeclarationUrl":"",
    "data/Rate":4.6,
    "data/RateCount":7,
    "data/GymFuncData/0/ID":10686,
    "data/GymFuncData/0/Name":"籃球場",
    "data/GymFuncData/0/GymType":"球類運動設施/籃球場館",
    "data/GymFuncData/0/InOut":"室內設施",
    "data/GymFuncData/0/Floor":"5"
    }
  },
  {
    "type": "Feature",
    "geometry": {
       "type": "Point",
       "coordinates":  [ 25.06526957,25.06526957 ]
    },
    "properties": {
    "data/city":"臺北市",
    "data/district":"大同區",
    "data/ID":10272,
    "data/GymType":"球類運動設施/籃球場館",
    "data/Name":"臺北市大同運動中心",
    "data/Addr":"臺北市 大同區 大龍街51號",
    "data/OperationTel":"02-25920055",
    "data/WebUrl":"http://www.dtsc-wdyg.com.tw/web/index/index.jsp",
    "data/ParkType":"一般及無障礙停車場",
    "data/EnableYear":98,
    "data/EnableMonth":12,
    "data/Introduction":"臺北市第十座市民運動中心－「大同運動中心」位於台北市最早開發、文化古蹟最豐富的行政區中，擁有享譽國際的孔廟、大龍峒保安宮，以及南北貨集散地的迪化街、大稻埕碼頭、圓環等，對台北的繁榮風華功不可沒，要如何在這個舊市鎮注入新的生命，大同區市民運動中心的啟用，就是一個新的里程碑。",
    "data/Contest":"曾在本場地舉辦國際運動賽事及國內運動賽事",
    "data/ContestIntro":"中華民國滑冰協會\n曲棍球全國賽事競賽場地、城市盃國際錦標賽競賽場地、全國直排冰球聯賽競賽場地\n中華民國溜冰協會\n假日盃直排輪曲棍球全國聯賽競賽場地、教育盃花式溜冰錦標賽競賽場地\n中華民國藤球協會全國賽事競賽場地\n中華民國身障運動協會 全國桌球錦標賽競賽場地",
    "data/Lng":121.5163475,
    "data/Photo1Url":"https://iplay.sa.gov.tw/Upload/photogym/20140625184629_大同外觀.JPG",
    "data/Photo2Url":"https://iplay.sa.gov.tw/Upload/photogym/20140625184629_U2PC5.jpg",
    "data/PassEasyEle":1,
    "data/PassEasyElePhotoUrl":"https://iplay.sa.gov.tw/Upload/passeasyphotogym/大同運動中心無障礙電梯照片20190812135444.jpg",
    "data/PassEasyFuncOthers":"",
    "data/PassEasyParking":2,
    "data/PassEasyParkingPhotoUrl":"https://iplay.sa.gov.tw/Upload/passeasyphotogym/大同運動中心無障礙停車位照片20190812135444.jpg",
    "data/PassEasyShower":0,
    "data/PassEasyShowerPhotoUrl":"https://iplay.sa.gov.tw",
    "data/PassEasyToilet":3,
    "data/PassEasyToiletPhotoUrl":"https://iplay.sa.gov.tw/Upload/passeasyphotogym/臺北市大同運動中心無障礙廁所照片20191210101931.jpg",
    "data/PassEasyWay":1,
    "data/PassEasyWayPhotoUrl":"https://iplay.sa.gov.tw/Upload/passeasyphotogym/臺北市大同運動中心無障礙通道照片20200504140304.jpg",
    "data/WheelchairAuditorium":"0",
    "data/WheelchairAuditoriumPhotoUrl":"https://iplay.sa.gov.tw",
    "data/PublicTransport":"捷運路線\n1.搭乘淡水線於民權西路站下車，出站後沿民權西路朝西，往承德路方向前進，於大龍街口右轉，直行約500公尺即可到達。\n2.搭乘蘆洲線於大橋頭站下車，出站後沿民權東路朝東，往承德路方向前進，於大龍街口左轉，直行約500公尺即可到達。",
    "data/Declaration":"",
    "data/DeclarationUrl":"",
    "data/Rate":4.9,
    "data/RateCount":6,
    "data/GymFuncData/0/ID":16006,
    "data/GymFuncData/0/Name":"桌球場(館)",
    "data/GymFuncData/0/GymType":"球類運動設施/桌球場館",
    "data/GymFuncData/0/InOut":"室內設施",
    "data/GymFuncData/0/Floor":"B1"
    }
  },
  {
    "type": "Feature",
    "geometry": {
       "type": "Point",
       "coordinates":  [ 25.02053343,25.02053343 ]
    },
    "properties": {
    "data/city":"臺北市",
    "data/district":"大安區",
    "data/ID":14297,
    "data/GymType":"球類運動設施/籃球場館",
    "data/Name":"臺北市大安運動中心",
    "data/Addr":"臺北市 大安區 辛亥路三段55號",
    "data/OperationTel":"02-23770300",
    "data/WebUrl":"https://www.daansports.com.tw/zh_TW/index",
    "data/ParkType":"一般及無障礙停車場",
    "data/EnableYear":99,
    "data/EnableMonth":4,
    "data/Introduction":"大安運動中心為臺北市第11座市民運動中心。\n其中分地下二層、地上五層，總樓板面積約五千兩百多坪。\n※場館設施設備簡介：\n4F：一座戶外運動場、三座壁球場。\n3F：五種運動場地共構的設施，分別有健身中心、籃(1面)羽球(8面)共用的多功能場地及撞球場。\n2F：五間韻律教室、一間技擊教室、一間飛輪教室、社區教室、多功能教室、桌球場等。\n1F：服務台、閱覽室、兒童遊戲室、哺集乳室、身障按摩區等。\nB1F：泳池：設置有50公尺及25公尺的室內溫水游泳池、 SPA水療設備、男女烤箱、男女蒸氣室、冷熱水池等。\nB2F：汽機車停車場 。",
    "data/Contest":"未曾在本場地舉辦運動賽事",
    "data/ContestIntro":"",
    "data/Lng":121.5457787,
    "data/Photo1Url":"https://iplay.sa.gov.tw/Upload/photogym/20140715192917_AZP1G.jpg",
    "data/Photo2Url":"https://iplay.sa.gov.tw/Upload/photogym/20140715192917_641-潘志豪-大安競技場-銀.jpg",
    "data/PassEasyEle":1,
    "data/PassEasyElePhotoUrl":"https://iplay.sa.gov.tw/Upload/passeasyphotogym/大安運動中心無障礙電梯照片20191224181542.jpg",
    "data/PassEasyFuncOthers":"",
    "data/PassEasyParking":4,
    "data/PassEasyParkingPhotoUrl":"https://iplay.sa.gov.tw/Upload/passeasyphotogym/大安運動中心無障礙停車位照片20190812153645.jpg",
    "data/PassEasyShower":2,
    "data/PassEasyShowerPhotoUrl":"https://iplay.sa.gov.tw/Upload/passeasyphotogym/大安運動中心無障礙淋浴間照片20191224181542.jpg",
    "data/PassEasyToilet":4,
    "data/PassEasyToiletPhotoUrl":"https://iplay.sa.gov.tw/Upload/passeasyphotogym/大安運動中心無障礙廁所照片20190812153645.jpg",
    "data/PassEasyWay":1,
    "data/PassEasyWayPhotoUrl":"https://iplay.sa.gov.tw/Upload/passeasyphotogym/大安運動中心無障礙通道照片20190812153645.jpg",
    "data/WheelchairAuditorium":"0",
    "data/WheelchairAuditoriumPhotoUrl":"https://iplay.sa.gov.tw",
    "data/PublicTransport":"木柵線(棕線)在科技大樓站下車，直行復興南路左轉辛亥路步行約12-15分鐘，或六張犁站下車，直行基隆路右轉辛亥路步行約12-15分鐘即達。",
    "data/Declaration":"",
    "data/DeclarationUrl":"",
    "data/Rate":5.6,
    "data/RateCount":11,
    "data/GymFuncData/0/ID":16672,
    "data/GymFuncData/0/Name":"健身房(含重量訓練室)",
    "data/GymFuncData/0/GymType":"阻力運動設施/多功能健身房/體適能中心（此空間中具有兩種以上之阻力運動器材設備）",
    "data/GymFuncData/0/InOut":"室內設施",
    "data/GymFuncData/0/Floor":"3"
    }
  },
  {
    "type": "Feature",
    "geometry": {
       "type": "Point",
       "coordinates":  [ 25.05482665,25.05482665 ]
    },
    "properties": {
    "data/city":"臺北市",
    "data/district":"中山區",
    "data/ID":10271,
    "data/GymType":"球類運動設施/籃球場館",
    "data/Name":"臺北市中山運動中心",
    "data/Addr":"臺北市 中山區 中山北路2段44巷2號",
    "data/OperationTel":"02-25811060",
    "data/WebUrl":"https://cssc.cyc.org.tw/",
    "data/ParkType":"一般及無障礙停車場",
    "data/EnableYear":92,
    "data/EnableMonth":3,
    "data/Introduction":"中山運動中心是臺北市第1座啟用運動中心，中心設有游泳池、健身房、社區教室、飛輪教室、綜合球場及羽球場等，適合辦理各類舞蹈及運動活動，並提供運動休閒、大型晚會使用，寬敞明亮，挑高的空間、明亮的燈光加上舒適的空調設備， 適合熱愛運動的市民全天候的運動需求。\n\n機械式停車格沒在使用，機車一次20元，汽車一小時40元",
    "data/Contest":"未曾在本場地舉辦運動賽事",
    "data/ContestIntro":"",
    "data/Lng":121.5214115,
    "data/Photo1Url":"https://iplay.sa.gov.tw/Upload/photogym/20140625182321_6LV1H.jpg",
    "data/Photo2Url":"https://iplay.sa.gov.tw/Upload/photogym/20140625182321_08261835526.jpg",
    "data/PassEasyEle":1,
    "data/PassEasyElePhotoUrl":"https://iplay.sa.gov.tw/Upload/passeasyphotogym/中山運動中心無障礙電梯照片20190812152201.jpg",
    "data/PassEasyFuncOthers":"",
    "data/PassEasyParking":2,
    "data/PassEasyParkingPhotoUrl":"https://iplay.sa.gov.tw/Upload/passeasyphotogym/中山運動中心無障礙停車位照片20190812145939.jpg",
    "data/PassEasyShower":2,
    "data/PassEasyShowerPhotoUrl":"https://iplay.sa.gov.tw/Upload/passeasyphotogym/臺北市中山運動中心無障礙淋浴間照片20200512140433.jpg",
    "data/PassEasyToilet":3,
    "data/PassEasyToiletPhotoUrl":"https://iplay.sa.gov.tw/Upload/passeasyphotogym/臺北市中山運動中心無障礙廁所照片20200512140433.jpg",
    "data/PassEasyWay":1,
    "data/PassEasyWayPhotoUrl":"https://iplay.sa.gov.tw/Upload/passeasyphotogym/臺北市中山運動中心無障礙通道照片20200512140433.jpg",
    "data/WheelchairAuditorium":"0",
    "data/WheelchairAuditoriumPhotoUrl":"https://iplay.sa.gov.tw",
    "data/PublicTransport":"捷運淡水線\n1.雙連站：沿捷運地下書街，往中山站方向至R9出口，步行約2分鐘\n2.中山站：沿捷運地下書街，往雙連站方向至R7出口，步行約5分鐘",
    "data/Declaration":"",
    "data/DeclarationUrl":"",
    "data/Rate":4.9,
    "data/RateCount":7,
    "data/GymFuncData/0/ID":16497,
    "data/GymFuncData/0/Name":"多功能綜合球場",
    "data/GymFuncData/0/GymType":"球類運動設施/籃球場館",
    "data/GymFuncData/0/InOut":"室內設施",
    "data/GymFuncData/0/Floor":"3樓"
    }
  },
  {
    "type": "Feature",
    "geometry": {
       "type": "Point",
       "coordinates":  [ 25.04895059,25.04895059 ]
    },
    "properties": {
    "data/city":"臺北市",
    "data/district":"南港區",
    "data/ID":10274,
    "data/GymType":"球類運動設施/籃球場館",
    "data/Name":"臺北市南港運動中心",
    "data/Addr":"臺北市 南港區 玉成街69號",
    "data/OperationTel":"02-26532279",
    "data/WebUrl":"https://ngsc.cyc.org.tw/",
    "data/ParkType":"一般及無障礙停車場",
    "data/EnableYear":95,
    "data/EnableMonth":12,
    "data/Introduction":"(一)場館設施：南港運動中心為地上 8 樓層、地下 4 層的運動場館，總樓板面積為17,540 平方公尺(約 6,305 坪)；包含有潛水池、游泳池、健身房、飛輪教室、各式球場、攀岩、射擊、射箭等 12 項運動設施；並有 3 間木地板教室，每期開設有氧、瑜珈類運動研習課程約 200 堂以上。\n\n(二)特色項目：本中心為全臺北市唯一設置「5 米溫水潛水訓練池」之運動中心，並有射擊場、射箭場等專業運動設施及專業教練等獨有或特色項目。\n\n(三)開館時間: 06:00~22:00 (除夕、初一不開放；如遇颱風等天災，依照行政院人事行政總處公告停止上班上課，暫時不對外開放",
    "data/Contest":"曾在本場地舉辦國內運動賽事",
    "data/ContestIntro":"2009臺北聽障奧運夏季運動會空手道單項競技主場",
    "data/Lng":121.5818531,
    "data/Photo1Url":"https://iplay.sa.gov.tw/Upload/photogym/20140625222852_6W2EK.jpg",
    "data/Photo2Url":"https://iplay.sa.gov.tw/Upload/photogym/20140625222852_南港.jpg",
    "data/PassEasyEle":2,
    "data/PassEasyElePhotoUrl":"https://iplay.sa.gov.tw/Upload/passeasyphotogym/臺北市南港運動中心無障礙電梯照片20191224171808.jpg",
    "data/PassEasyFuncOthers":"",
    "data/PassEasyParking":2,
    "data/PassEasyParkingPhotoUrl":"https://iplay.sa.gov.tw/Upload/passeasyphotogym/臺北市南港運動中心無障礙停車位照片20191224171808.jpg",
    "data/PassEasyShower":2,
    "data/PassEasyShowerPhotoUrl":"https://iplay.sa.gov.tw/Upload/passeasyphotogym/臺北市南港運動中心無障礙淋浴間照片20190812113827.jpg",
    "data/PassEasyToilet":4,
    "data/PassEasyToiletPhotoUrl":"https://iplay.sa.gov.tw/Upload/passeasyphotogym/臺北市南港運動中心無障礙廁所照片20190812113827.jpg",
    "data/PassEasyWay":1,
    "data/PassEasyWayPhotoUrl":"https://iplay.sa.gov.tw/Upload/passeasyphotogym/臺北市南港運動中心無障礙通道照片20190812113827.jpg",
    "data/WheelchairAuditorium":"0",
    "data/WheelchairAuditoriumPhotoUrl":"https://iplay.sa.gov.tw",
    "data/PublicTransport":"您如果搭捷運：\n(1)板南線後山埤站4號出口（忠孝東路六段9巷），直走接玉成街左轉後步行約5分鐘即可到達。\n(2)松山線松山站4A出口，沿市民大道六段往市民大道七段方向直行至玉成街交叉口即可抵達。\n\n您如果搭火車：\n松山火車站向東，步行約200公尺。",
    "data/Declaration":"",
    "data/DeclarationUrl":"",
    "data/Rate":4.7,
    "data/RateCount":6,
    "data/GymFuncData/0/ID":11153,
    "data/GymFuncData/0/Name":"多功能球場",
    "data/GymFuncData/0/GymType":"球類運動設施/籃球場館",
    "data/GymFuncData/0/InOut":"室內設施",
    "data/GymFuncData/0/Floor":"3"
    }
  },
  {
    "type": "Feature",
    "geometry": {
       "type": "Point",
       "coordinates":  [ 25.25191564,25.25191564 ]
    },
    "properties": {
    "data/city":"新北市",
    "data/district":"三芝區",
    "data/ID":14248,
    "data/GymType":"球類運動設施/籃球場館",
    "data/Name":"馬偕醫護管理專科學校運動中心",
    "data/Addr":"新北市三芝區中正路三段42號",
    "data/OperationTel":"02-28584180#2145",
    "data/WebUrl":"http://www.mkc.edu.tw",
    "data/ParkType":"",
    "data/EnableYear":95,
    "data/EnableMonth":7,
    "data/Introduction":"設有田徑場一座，綜合球場兩座(籃排球場及籃網球場)，提供體育教學及學生課外活動良好舒適的環境。",
    "data/Contest":"未曾在本場地舉辦運動賽事",
    "data/ContestIntro":"",
    "data/Lng":121.498704,
    "data/Photo1Url":"https://iplay.sa.gov.tw/Upload/photogym/20140715135657_DSC_0019-綜合體育場-1-1.JPG",
    "data/Photo2Url":"https://iplay.sa.gov.tw/Upload/photogym/20140715135657_DSC_0018-綜合體育場2-1.JPG",
    "data/PassEasyEle":6,
    "data/PassEasyElePhotoUrl":"https://iplay.sa.gov.tw",
    "data/PassEasyFuncOthers":"",
    "data/PassEasyParking":1,
    "data/PassEasyParkingPhotoUrl":"https://iplay.sa.gov.tw",
    "data/PassEasyShower":0,
    "data/PassEasyShowerPhotoUrl":"https://iplay.sa.gov.tw",
    "data/PassEasyToilet":25,
    "data/PassEasyToiletPhotoUrl":"https://iplay.sa.gov.tw",
    "data/PassEasyWay":3,
    "data/PassEasyWayPhotoUrl":"https://iplay.sa.gov.tw",
    "data/WheelchairAuditorium":"0",
    "data/WheelchairAuditoriumPhotoUrl":"https://iplay.sa.gov.tw",
    "data/PublicTransport":"關渡校址：11260 台北市北投區聖景路92號 電話：(02)28584180       三芝校址：25245新北市三芝區中正路三段42號 電話：(02)26366799",
    "data/Declaration":"",
    "data/DeclarationUrl":"",
    "data/Rate":0,
    "data/RateCount":0,
    "data/GymFuncData/0/ID":16369,
    "data/GymFuncData/0/Name":"田徑場",
    "data/GymFuncData/0/GymType":"陸上/射擊運動設施/田徑場",
    "data/GymFuncData/0/InOut":"室外設施",
    "data/GymFuncData/0/Floor":""
    }
  },
  {
    "type": "Feature",
    "geometry": {
       "type": "Point",
       "coordinates":  [ 25.09481589,25.09481589 ]
    },
    "properties": {
    "data/city":"新北市",
    "data/district":"五股區",
    "data/ID":26235,
    "data/GymType":"水上/冰上運動設施/游泳池",
    "data/Name":"五股國民運動中心",
    "data/Addr":"新北市五股區成泰路三段296號",
    "data/OperationTel":"02-22928255",
    "data/WebUrl":"https://wgsc.chanchao.com.tw",
    "data/ParkType":"一般及無障礙停車場",
    "data/EnableYear":109,
    "data/EnableMonth":6,
    "data/Introduction":"五股國民運動中心一樓有25公尺游泳池、兒童池、冷水池、Spa池、按摩池、餐飲區、販賣部等，二樓則是體適能中心，三樓有韻律教室、運動區教室、彈性使用空間。",
    "data/Contest":"未曾在本場地舉辦運動賽事",
    "data/ContestIntro":"",
    "data/Lng":121.4480374,
    "data/Photo1Url":"https://iplay.sa.gov.tw/Upload/photogym/20200914151426_GMXXOMYFCZ1APTDI48PK.jpg",
    "data/Photo2Url":"https://iplay.sa.gov.tw/Upload/photogym/20200914151426_MMSH5B56ZD9WSWR434E9.jpg",
    "data/PassEasyEle":1,
    "data/PassEasyElePhotoUrl":"https://iplay.sa.gov.tw/Upload/passeasyphotogym/五股國民運動中心無障礙電梯照片20200925133918.jpg",
    "data/PassEasyFuncOthers":"",
    "data/PassEasyParking":2,
    "data/PassEasyParkingPhotoUrl":"https://iplay.sa.gov.tw/Upload/passeasyphotogym/五股國民運動中心無障礙停車位照片20200925114421.jpg",
    "data/PassEasyShower":3,
    "data/PassEasyShowerPhotoUrl":"https://iplay.sa.gov.tw/Upload/passeasyphotogym/五股國民運動中心無障礙淋浴間照片20200925114421.jpg",
    "data/PassEasyToilet":5,
    "data/PassEasyToiletPhotoUrl":"https://iplay.sa.gov.tw/Upload/passeasyphotogym/五股國民運動中心無障礙廁所照片20200925114421.jpg",
    "data/PassEasyWay":2,
    "data/PassEasyWayPhotoUrl":"https://iplay.sa.gov.tw/Upload/passeasyphotogym/五股國民運動中心無障礙通道照片20200925120132.jpg",
    "data/WheelchairAuditorium":"0",
    "data/WheelchairAuditoriumPhotoUrl":"https://iplay.sa.gov.tw",
    "data/PublicTransport":"公車站牌-西雲寺站\n508 泰山公有市場-大同之家\n838泰山-捷運關渡站\n880樹林-淡海\n883樹林-淡海\n947淡水-板橋\n\n自行開車\n可走台64線，從成子寮匝道口下，左轉凌雲路，往成泰路三段方向。",
    "data/Declaration":"除夕、初一不開放；如遇颱風等天災，依照新北市政府公告停止上班上課。",
    "data/DeclarationUrl":"",
    "data/Rate":0,
    "data/RateCount":0,
    "data/GymFuncData/0/ID":34646,
    "data/GymFuncData/0/Name":"游泳池",
    "data/GymFuncData/0/GymType":"水上/冰上運動設施/游泳池",
    "data/GymFuncData/0/InOut":"室內設施",
    "data/GymFuncData/0/Floor":"1"
    }
  },
  {
    "type": "Feature",
    "geometry": {
       "type": "Point",
       "coordinates":  [ 24.98542591,24.98542591 ]
    },
    "properties": {
    "data/city":"新北市",
    "data/district":"土城區",
    "data/ID":16723,
    "data/GymType":"水上/冰上運動設施/游泳池",
    "data/Name":"土城國民運動中心",
    "data/Addr":"新北市土城區金城路二段247-1號",
    "data/OperationTel":"02-22615999",
    "data/WebUrl":"https://tccsc.cyc.org.tw/",
    "data/ParkType":"一般及無障礙停車場",
    "data/EnableYear":103,
    "data/EnableMonth":10,
    "data/Introduction":"中心設有游泳池、健身中心、冰宮、桌球、撞球、壁球、籃球、羽球、攀岩、漆彈...等設施",
    "data/Contest":"未曾在本場地舉辦運動賽事",
    "data/ContestIntro":"",
    "data/Lng":121.4572155,
    "data/Photo1Url":"https://iplay.sa.gov.tw/Upload/photogym/20140924095545_土城1.jpg",
    "data/Photo2Url":"https://iplay.sa.gov.tw/Upload/photogym/20140924095545_土城2.jpg",
    "data/PassEasyEle":2,
    "data/PassEasyElePhotoUrl":"https://iplay.sa.gov.tw/Upload/passeasyphotogym/土城國民運動中心無障礙電梯照片20191223111245.jpg",
    "data/PassEasyFuncOthers":"",
    "data/PassEasyParking":2,
    "data/PassEasyParkingPhotoUrl":"https://iplay.sa.gov.tw/Upload/passeasyphotogym/土城國民運動中心無障礙停車位照片20190917141328.jpg",
    "data/PassEasyShower":4,
    "data/PassEasyShowerPhotoUrl":"https://iplay.sa.gov.tw/Upload/passeasyphotogym/土城國民運動中心無障礙淋浴間照片20191223111245.jpg",
    "data/PassEasyToilet":5,
    "data/PassEasyToiletPhotoUrl":"https://iplay.sa.gov.tw/Upload/passeasyphotogym/土城國民運動中心無障礙廁所照片20200506180641.jpg",
    "data/PassEasyWay":0,
    "data/PassEasyWayPhotoUrl":"https://iplay.sa.gov.tw",
    "data/WheelchairAuditorium":"0",
    "data/WheelchairAuditoriumPhotoUrl":"https://iplay.sa.gov.tw",
    "data/PublicTransport":"捷運板南線海山站下車，3號裕民路出口出站，至裕民路後，轉搭藍41公車至廣川醫院，下車步行約3分鐘抵達。",
    "data/Declaration":"除夕、初一不開放；如遇颱風等天災，依照新北市政府公告停止上班上課。",
    "data/DeclarationUrl":"",
    "data/Rate":5,
    "data/RateCount":10,
    "data/GymFuncData/0/ID":21619,
    "data/GymFuncData/0/Name":"游泳池",
    "data/GymFuncData/0/GymType":"水上/冰上運動設施/游泳池",
    "data/GymFuncData/0/InOut":"室內設施",
    "data/GymFuncData/0/Floor":"1"
    }
  },
  {
    "type": "Feature",
    "geometry": {
       "type": "Point",
       "coordinates":  [ 24.9933886,24.9933886 ]
    },
    "properties": {
    "data/city":"新北市",
    "data/district":"中和區",
    "data/ID":16721,
    "data/GymType":"水上/冰上運動設施/游泳池",
    "data/Name":"中和國民運動中心",
    "data/Addr":"新北市中和區錦和路350-1、2號",
    "data/OperationTel":"02-22429222",
    "data/WebUrl":"http://www.changjia.com.tw/",
    "data/ParkType":"一般及無障礙停車場",
    "data/EnableYear":103,
    "data/EnableMonth":11,
    "data/Introduction":"提供民眾多元運動設施，開設多元運動課程，期望人人活到老、動到老！",
    "data/Contest":"未曾在本場地舉辦運動賽事",
    "data/ContestIntro":"",
    "data/Lng":121.4891434,
    "data/Photo1Url":"https://iplay.sa.gov.tw/Upload/photogym/20140924092129_主館外觀1.jpg",
    "data/Photo2Url":"https://iplay.sa.gov.tw/Upload/photogym/20140924092129_游泳館外觀1.jpg",
    "data/PassEasyEle":0,
    "data/PassEasyElePhotoUrl":"https://iplay.sa.gov.tw",
    "data/PassEasyFuncOthers":"",
    "data/PassEasyParking":9,
    "data/PassEasyParkingPhotoUrl":"https://iplay.sa.gov.tw/Upload/passeasyphotogym/中和國民運動中心無障礙停車位照片20191216173735.jpg",
    "data/PassEasyShower":7,
    "data/PassEasyShowerPhotoUrl":"https://iplay.sa.gov.tw/Upload/passeasyphotogym/中和國民運動中心無障礙淋浴間照片20191216173659.jpg",
    "data/PassEasyToilet":7,
    "data/PassEasyToiletPhotoUrl":"https://iplay.sa.gov.tw/Upload/passeasyphotogym/中和國民運動中心無障礙廁所照片20191216173659.jpg",
    "data/PassEasyWay":2,
    "data/PassEasyWayPhotoUrl":"https://iplay.sa.gov.tw/Upload/passeasyphotogym/中和國民運動中心無障礙通道照片20190917141644.jpg",
    "data/WheelchairAuditorium":"0",
    "data/WheelchairAuditoriumPhotoUrl":"https://iplay.sa.gov.tw",
    "data/PublicTransport":"捷運於景安捷運站下車，轉乘公車橘5，於中和國民運動中心站下車步行約5分鐘",
    "data/Declaration":"除夕、初一不開放，如逢颱風、地震、豪雨等天災均依行政院人事行政局或新北市政府宣布是否對外開放。",
    "data/DeclarationUrl":"",
    "data/Rate":7,
    "data/RateCount":4,
    "data/GymFuncData/0/ID":21750,
    "data/GymFuncData/0/Name":"桌球室",
    "data/GymFuncData/0/GymType":"球類運動設施/桌球場館",
    "data/GymFuncData/0/InOut":"室內設施",
    "data/GymFuncData/0/Floor":"2"
    }
  },
  {
    "type": "Feature",
    "geometry": {
       "type": "Point",
       "coordinates":  [ 25.03957614,25.03957614 ]
    },
    "properties": {
    "data/city":"新北市",
    "data/district":"新莊區",
    "data/ID":20269,
    "data/GymType":"水上/冰上運動設施/游泳池",
    "data/Name":"新莊國民運動中心",
    "data/Addr":"新北市新莊區公園路11號",
    "data/OperationTel":"02-77288898",
    "data/WebUrl":"https://www.xzsports.com.tw/",
    "data/ParkType":"一般及無障礙停車場",
    "data/EnableYear":101,
    "data/EnableMonth":12,
    "data/Introduction":"原新莊國民運動中心興建位址為綠色草坪，為了避免興建國民運動中心，造成綠覆率降低，減少民眾綠地空間，藉由設置綠色屋頂，調節夏日室溫節省電費。建築設計時，亦考量沖刷、保水排水、載重等問題，以植生毯、導流樁、擋土樁、沖孔鋁板設計、保綠人造土30％、岩棉、穩壓滴灌系統及選擇輕量土壤等方式，以達到實務與環保理念結合之目的。地下停車場（B2－B3）為汽車用。陸上運動有羽球、多功能綜合球場、撞球室、兒童遊憩室、桌球室、攀岩場、健身中心、飛輪教室、韻律教室及室內跑道。水上設施有國際標準溫水游泳池、練習池、兒童池、SPA水療池、三溫暖冷熱池、三溫暖蒸氣室、三溫暖烤箱。",
    "data/Contest":"曾在本場地舉辦國際運動賽事及國內運動賽事",
    "data/ContestIntro":"",
    "data/Lng":121.4483482,
    "data/Photo1Url":"https://iplay.sa.gov.tw/Upload/photogym/20150805091345_15108122468_e47443a68b_c.jpg",
    "data/Photo2Url":"https://iplay.sa.gov.tw/Upload/photogym/20150805091345_9RIV4.jpg",
    "data/PassEasyEle":1,
    "data/PassEasyElePhotoUrl":"https://iplay.sa.gov.tw/Upload/passeasyphotogym/新莊國民運動中心無障礙電梯照片20200507110833.jpg",
    "data/PassEasyFuncOthers":"",
    "data/PassEasyParking":8,
    "data/PassEasyParkingPhotoUrl":"https://iplay.sa.gov.tw/Upload/passeasyphotogym/新莊國民運動中心無障礙停車位照片20190917134120.jpg",
    "data/PassEasyShower":1,
    "data/PassEasyShowerPhotoUrl":"https://iplay.sa.gov.tw/Upload/passeasyphotogym/新莊國民運動中心無障礙淋浴間照片20190917134120.jpg",
    "data/PassEasyToilet":5,
    "data/PassEasyToiletPhotoUrl":"https://iplay.sa.gov.tw/Upload/passeasyphotogym/新莊國民運動中心無障礙廁所照片20200507132419.jpg",
    "data/PassEasyWay":0,
    "data/PassEasyWayPhotoUrl":"https://iplay.sa.gov.tw",
    "data/WheelchairAuditorium":"0",
    "data/WheelchairAuditoriumPhotoUrl":"https://iplay.sa.gov.tw",
    "data/PublicTransport":"捷運新莊站",
    "data/Declaration":"除夕、初一不開放；如遇颱風等天災，依照新北市政府公告停止上班上課。",
    "data/DeclarationUrl":"http://www.xzsports.com.tw/",
    "data/Rate":5.7,
    "data/RateCount":6,
    "data/GymFuncData/0/ID":23291,
    "data/GymFuncData/0/Name":"游泳池",
    "data/GymFuncData/0/GymType":"水上/冰上運動設施/游泳池",
    "data/GymFuncData/0/InOut":"室內設施",
    "data/GymFuncData/0/Floor":"1樓"
    }
  },
  {
    "type": "Feature",
    "geometry": {
       "type": "Point",
       "coordinates":  [ 25.00310429,25.00310429 ]
    },
    "properties": {
    "data/city":"新北市",
    "data/district":"永和區",
    "data/ID":22424,
    "data/GymType":"球類運動設施/籃球場館",
    "data/Name":"永和國民運動中心",
    "data/Addr":"新北市永和區永利路250號",
    "data/OperationTel":"02-22318989",
    "data/WebUrl":"https://yhcsc.cyc.org.tw/",
    "data/ParkType":"一般及無障礙停車場",
    "data/EnableYear":105,
    "data/EnableMonth":12,
    "data/Introduction":"本中心各場館簡介可於雲端硬碟直接下載\nhttps://drive.google.com/file/d/1kJkvy6pa_zPPmt2T9jq9g1eyLcTvXPb0/view",
    "data/Contest":"未曾在本場地舉辦運動賽事",
    "data/ContestIntro":"",
    "data/Lng":121.5241769,
    "data/Photo1Url":"https://iplay.sa.gov.tw/Upload/photogym/20161221160218_NFJK0ZPLGZXLHJL9D961.JPG",
    "data/Photo2Url":"https://iplay.sa.gov.tw/Upload/photogym/20161221160218_Y3W9G7QBX306EL2BWRKG.jpg",
    "data/PassEasyEle":0,
    "data/PassEasyElePhotoUrl":"https://iplay.sa.gov.tw",
    "data/PassEasyFuncOthers":"",
    "data/PassEasyParking":5,
    "data/PassEasyParkingPhotoUrl":"https://iplay.sa.gov.tw/Upload/passeasyphotogym/永和國民運動中心無障礙停車位照片20190917123213.jpg",
    "data/PassEasyShower":7,
    "data/PassEasyShowerPhotoUrl":"https://iplay.sa.gov.tw/Upload/passeasyphotogym/永和國民運動中心無障礙淋浴間照片20191223132840.jpg",
    "data/PassEasyToilet":7,
    "data/PassEasyToiletPhotoUrl":"https://iplay.sa.gov.tw/Upload/passeasyphotogym/永和國民運動中心無障礙廁所照片20191223132840.jpg",
    "data/PassEasyWay":1,
    "data/PassEasyWayPhotoUrl":"https://iplay.sa.gov.tw/Upload/passeasyphotogym/永和國民運動中心無障礙通道照片20190917123213.jpg",
    "data/WheelchairAuditorium":"0",
    "data/WheelchairAuditoriumPhotoUrl":"https://iplay.sa.gov.tw",
    "data/PublicTransport":"(新蘆線)捷運永安市場站：轉乘F526路線公車至「國防部福利站」站牌。\n(新店松山線)捷運公館站：轉乘208、254、275路線公車至「福和橋」站牌，下車後步行2分鐘即可抵達",
    "data/Declaration":"除夕、初一不開放；如遇颱風等天災，依照新北市政府公告停止上班上課。",
    "data/DeclarationUrl":"",
    "data/Rate":7.3,
    "data/RateCount":6,
    "data/GymFuncData/0/ID":26531,
    "data/GymFuncData/0/Name":"游泳池",
    "data/GymFuncData/0/GymType":"水上/冰上運動設施/游泳池",
    "data/GymFuncData/0/InOut":"室內設施",
    "data/GymFuncData/0/Floor":"2"
    }
  },
  {
    "type": "Feature",
    "geometry": {
       "type": "Point",
       "coordinates":  [ 25.06541049,25.06541049 ]
    },
    "properties": {
    "data/city":"新北市",
    "data/district":"汐止區",
    "data/ID":22425,
    "data/GymType":"水上/冰上運動設施/游泳池",
    "data/Name":"汐止國民運動中心",
    "data/Addr":"新北市汐止區汐科路321號(主館)",
    "data/OperationTel":"02-86915691",
    "data/WebUrl":"https://xzcsc.cyc.org.tw/",
    "data/ParkType":"一般及無障礙停車場",
    "data/EnableYear":105,
    "data/EnableMonth":9,
    "data/Introduction":"本中心由新北市政府興建，擁有健身房、游泳池、籃球場、壁球場、羽球場、桌球室、有氧及舞蹈教室、瑜珈及TRX教室、飛輪教室及棒球打擊場，讓汐止市民盡情運動",
    "data/Contest":"未曾在本場地舉辦運動賽事",
    "data/ContestIntro":"",
    "data/Lng":121.6577053,
    "data/Photo1Url":"https://iplay.sa.gov.tw/Upload/photogym/20161221165114_7I76NMW3ZQ1DFE6UO9LO.jpg",
    "data/Photo2Url":"https://iplay.sa.gov.tw/Upload/photogym/20161221165114_JSFYUQ13HRN3RFYTDJOO.jpg",
    "data/PassEasyEle":0,
    "data/PassEasyElePhotoUrl":"https://iplay.sa.gov.tw",
    "data/PassEasyFuncOthers":"",
    "data/PassEasyParking":2,
    "data/PassEasyParkingPhotoUrl":"https://iplay.sa.gov.tw/Upload/passeasyphotogym/汐止國民運動中心無障礙停車位照片20191217160301.jpg",
    "data/PassEasyShower":6,
    "data/PassEasyShowerPhotoUrl":"https://iplay.sa.gov.tw/Upload/passeasyphotogym/汐止國民運動中心無障礙淋浴間照片20190917122957.jpg",
    "data/PassEasyToilet":6,
    "data/PassEasyToiletPhotoUrl":"https://iplay.sa.gov.tw/Upload/passeasyphotogym/汐止國民運動中心無障礙廁所照片20190917122957.jpg",
    "data/PassEasyWay":1,
    "data/PassEasyWayPhotoUrl":"https://iplay.sa.gov.tw/Upload/passeasyphotogym/汐止國民運動中心無障礙通道照片20190917122957.jpg",
    "data/WheelchairAuditorium":"0",
    "data/WheelchairAuditoriumPhotoUrl":"https://iplay.sa.gov.tw",
    "data/PublicTransport":"至 捷運松山站再步行2分鐘至松山火車站,搭火車至汐止火車站後約步行6分鐘至汐止國民運中心",
    "data/Declaration":"除夕、初一不開放；如遇颱風等天災，依照新北市政府公告停止上班上課。",
    "data/DeclarationUrl":"",
    "data/Rate":2,
    "data/RateCount":1,
    "data/GymFuncData/0/ID":26542,
    "data/GymFuncData/0/Name":"羽球場",
    "data/GymFuncData/0/GymType":"球類運動設施/羽球場館",
    "data/GymFuncData/0/InOut":"室內設施",
    "data/GymFuncData/0/Floor":"3"
    }
  },
  {
    "type": "Feature",
    "geometry": {
       "type": "Point",
       "coordinates":  [ 25.02258027,25.02258027 ]
    },
    "properties": {
    "data/city":"新北市",
    "data/district":"板橋區",
    "data/ID":17888,
    "data/GymType":"水上/冰上運動設施/游泳池",
    "data/Name":"板橋國民運動中心",
    "data/Addr":"新北市板橋區智樂路6號",
    "data/OperationTel":"02-22588886",
    "data/WebUrl":"http://www.bqsports.com.tw/",
    "data/ParkType":"一般及無障礙停車場",
    "data/EnableYear":104,
    "data/EnableMonth":4,
    "data/Introduction":"長佳機電創立於民國82年，專業客服、永續經營，是長佳的經營理念，也是長佳之業展望；面對二十一世紀，長佳機電將整合集團資源，以更精湛的施工團隊、豐富的施工經驗及嚴謹的工程品質，創造出卓越的工程價值，成就長佳與客戶的雙贏目標。\n在多元化業務經營及拓展海內外市場外，為朝永續經營目標邁進目前公司經營管理之運動中心包括新北市「中和」、「板橋」二座，臺北市「中正」一座及「國立臺北教育大學泳健館」，未來將再適機投資經營其他運動場館，於機電整合工程本業外，擴大運動產業範圍，期待為城市健康、市民健康盡一份心力。\n\n\n",
    "data/Contest":"未曾在本場地舉辦運動賽事",
    "data/ContestIntro":"",
    "data/Lng":121.4575845,
    "data/Photo1Url":"https://iplay.sa.gov.tw/Upload/photogym/20150506091552_1503181125051474.gif",
    "data/Photo2Url":"https://iplay.sa.gov.tw/Upload/photogym/20150506091552_未命名.jpg",
    "data/PassEasyEle":2,
    "data/PassEasyElePhotoUrl":"https://iplay.sa.gov.tw/Upload/passeasyphotogym/板橋國民運動中心無障礙電梯照片20200505122734.jpg",
    "data/PassEasyFuncOthers":"",
    "data/PassEasyParking":5,
    "data/PassEasyParkingPhotoUrl":"https://iplay.sa.gov.tw/Upload/passeasyphotogym/板橋國民運動中心無障礙停車位照片20190917133651.jpg",
    "data/PassEasyShower":5,
    "data/PassEasyShowerPhotoUrl":"https://iplay.sa.gov.tw/Upload/passeasyphotogym/板橋國民運動中心無障礙淋浴間照片20200505133628.jpg",
    "data/PassEasyToilet":7,
    "data/PassEasyToiletPhotoUrl":"https://iplay.sa.gov.tw/Upload/passeasyphotogym/板橋國民運動中心無障礙廁所照片20190925161318.jpg",
    "data/PassEasyWay":1,
    "data/PassEasyWayPhotoUrl":"https://iplay.sa.gov.tw/Upload/passeasyphotogym/板橋國民運動中心無障礙通道照片20190927095754.jpg",
    "data/WheelchairAuditorium":"0",
    "data/WheelchairAuditoriumPhotoUrl":"https://iplay.sa.gov.tw",
    "data/PublicTransport":"◎搭乘658、857、橘5於『板橋國民運動中心』站下車。\n◎搭乘310、307、810、786至「板橋國中(板橋435藝文特區)」下車，步行約5分鐘抵達本中心門口。\n◎搭乘藍32於『聯合醫院(板橋院區)站』下車，步行約2分鐘抵達本中心門\n捷運\n",
    "data/Declaration":"除夕、初一不開放；如遇颱風等天災，依照新北市政府公告停止上班上課。",
    "data/DeclarationUrl":"",
    "data/Rate":2,
    "data/RateCount":1,
    "data/GymFuncData/0/ID":22885,
    "data/GymFuncData/0/Name":"游泳池",
    "data/GymFuncData/0/GymType":"水上/冰上運動設施/游泳池",
    "data/GymFuncData/0/InOut":"室內設施",
    "data/GymFuncData/0/Floor":"1"
    }
  },
  {
    "type": "Feature",
    "geometry": {
       "type": "Point",
       "coordinates":  [ 25.08604587,25.08604587 ]
    },
    "properties": {
    "data/city":"新北市",
    "data/district":"林口區",
    "data/ID":25919,
    "data/GymType":"球類運動設施/籃球場館",
    "data/Name":"林口國民運動中心",
    "data/Addr":"新北市林口區文化二路2段299號",
    "data/OperationTel":"02-26029092",
    "data/WebUrl":"https://lkcsc.cyc.org.tw/",
    "data/ParkType":"無停車場",
    "data/EnableYear":108,
    "data/EnableMonth":12,
    "data/Introduction":"林口國民運動中心於105年10月7日開工，規劃時保留基地內原運動公園大部分原生樹種，滿足市民休憩、活動等多元的使用需求，並於108年9月5日完工，建物外觀是大片白色牆面點綴紅色塊，結合周邊的公園景觀坐落於綠林中。\n\n林口國民運動中心於108年11月30日啟用，特色設施為空氣槍射擊場，基本設施含烤箱、蒸氣室、SPA 池、兒童池、室內25公尺游泳池、綜合球場、體適能中心、韻律教室、壁球室及桌球室等運動設施，以滿足民眾休閒、健身學習及紓壓等功能。",
    "data/Contest":"未曾在本場地舉辦運動賽事",
    "data/ContestIntro":"",
    "data/Lng":121.380558,
    "data/Photo1Url":"https://iplay.sa.gov.tw/Upload/photogym/20191127171050_F0SPU4IPSCAYB11O4I53.jpg",
    "data/Photo2Url":"https://iplay.sa.gov.tw/Upload/photogym/20191127171050_YUKI6ORQIRVBHV45PKMA.jpg",
    "data/PassEasyEle":2,
    "data/PassEasyElePhotoUrl":"https://iplay.sa.gov.tw/Upload/passeasyphotogym/林口國民運動中心無障礙電梯照片20200514133525.jpg",
    "data/PassEasyFuncOthers":"",
    "data/PassEasyParking":2,
    "data/PassEasyParkingPhotoUrl":"https://iplay.sa.gov.tw/Upload/passeasyphotogym/林口國民運動中心無障礙停車位照片20200514133525.jpg",
    "data/PassEasyShower":2,
    "data/PassEasyShowerPhotoUrl":"https://iplay.sa.gov.tw/Upload/passeasyphotogym/林口國民運動中心無障礙淋浴間照片20200514133525.jpg",
    "data/PassEasyToilet":6,
    "data/PassEasyToiletPhotoUrl":"https://iplay.sa.gov.tw/Upload/passeasyphotogym/林口國民運動中心無障礙廁所照片20200514133525.jpg",
    "data/PassEasyWay":0,
    "data/PassEasyWayPhotoUrl":"https://iplay.sa.gov.tw",
    "data/WheelchairAuditorium":"0",
    "data/WheelchairAuditoriumPhotoUrl":"https://iplay.sa.gov.tw",
    "data/PublicTransport":"搭乘936、962、F231 號路線，於文化二路寶林路口站下車，即可到達林口國民運動中心，",
    "data/Declaration":"除夕、初一休館，初二至初五營業時間為 08:00 - 17:00。如遇颱風等天災，依照新北市政府公告停止上班上課，全館則休館不對外開放。",
    "data/DeclarationUrl":"",
    "data/Rate":0,
    "data/RateCount":0,
    "data/GymFuncData/0/ID":34025,
    "data/GymFuncData/0/Name":"游泳池",
    "data/GymFuncData/0/GymType":"水上/冰上運動設施/游泳池",
    "data/GymFuncData/0/InOut":"室內設施",
    "data/GymFuncData/0/Floor":"B1"
    }
  },
  {
    "type": "Feature",
    "geometry": {
       "type": "Point",
       "coordinates":  [ 24.93796474,24.93796474 ]
    },
    "properties": {
    "data/city":"新北市",
    "data/district":"三峽區",
    "data/ID":24233,
    "data/GymType":"水上/冰上運動設施/游泳池",
    "data/Name":"三峽國民運動中心",
    "data/Addr":"新北市三峽區文化路210巷12號",
    "data/OperationTel":"02-26749088",
    "data/WebUrl":"https://scysports.com.tw/",
    "data/ParkType":"一般及無障礙停車場",
    "data/EnableYear":107,
    "data/EnableMonth":10,
    "data/Introduction":"以魔術方塊作為設計理念，內部空間規畫包含50公尺標準游泳池、體適能中心、桌球/撞球室、韻律教室、多功能教室、綜合球場、壁球室等核心空間。並以運動星球為主題，讓你不只來運動、也能有視覺的享受。",
    "data/Contest":"曾在本場地舉辦國內運動賽事",
    "data/ContestIntro":"",
    "data/Lng":121.3683255,
    "data/Photo1Url":"https://iplay.sa.gov.tw/Upload/photogym/20181015135037_HPQUG4XHF65IALM77PJI.jpg",
    "data/Photo2Url":"https://iplay.sa.gov.tw/Upload/photogym/20181015135037_A55TBOUG6T6WGSBPBX5B.jpg",
    "data/PassEasyEle":2,
    "data/PassEasyElePhotoUrl":"https://iplay.sa.gov.tw/Upload/passeasyphotogym/三鶯國民運動中心無障礙電梯照片20200505133833.jpg",
    "data/PassEasyFuncOthers":"",
    "data/PassEasyParking":4,
    "data/PassEasyParkingPhotoUrl":"https://iplay.sa.gov.tw/Upload/passeasyphotogym/三鶯國民運動中心無障礙停車位照片20191223140202.jpg",
    "data/PassEasyShower":4,
    "data/PassEasyShowerPhotoUrl":"https://iplay.sa.gov.tw/Upload/passeasyphotogym/三鶯國民運動中心無障礙淋浴間照片20200505140323.jpg",
    "data/PassEasyToilet":4,
    "data/PassEasyToiletPhotoUrl":"https://iplay.sa.gov.tw/Upload/passeasyphotogym/三鶯國民運動中心無障礙廁所照片20191223140202.jpg",
    "data/PassEasyWay":0,
    "data/PassEasyWayPhotoUrl":"https://iplay.sa.gov.tw",
    "data/WheelchairAuditorium":"0",
    "data/WheelchairAuditoriumPhotoUrl":"https://iplay.sa.gov.tw",
    "data/PublicTransport":"公車站牌\n三峽國小站\n702、778、779、802、807、885、908、910、916、5001、5005\n三峽國中站\n702、705、706、889、908、910\n臺北大學三峽校區\n702、889、908、910、916、921、932、939、941、981、889\n\n自行開車\n國道三號往三峽方向下交流道後，沿復興路直行，至復興路237巷右轉，行至文化路左轉後，目的地即在左手邊。\n自北大方向沿學成路直行至復興路237巷，行至文化路左轉後，目的地即在左手邊。\n自鶯歌方向走三鶯大橋至三峽，沿復興路直行，至復興路237巷右轉，行至文化路左轉後，目的地即在左手邊。",
    "data/Declaration":"除夕、初一不開放；如遇颱風等天災，依照新北市政府公告停止上班上課。",
    "data/DeclarationUrl":"",
    "data/Rate":8,
    "data/RateCount":4,
    "data/GymFuncData/0/ID":30805,
    "data/GymFuncData/0/Name":"游泳池",
    "data/GymFuncData/0/GymType":"水上/冰上運動設施/游泳池",
    "data/GymFuncData/0/InOut":"室內設施",
    "data/GymFuncData/0/Floor":"1F"
    }
  },
  {
    "type": "Feature",
    "geometry": {
       "type": "Point",
       "coordinates":  [ 25.06674677,25.06674677 ]
    },
    "properties": {
    "data/city":"新北市",
    "data/district":"汐止區",
    "data/ID":9184,
    "data/GymType":"球類運動設施/羽球場館",
    "data/Name":"汐止國小活動中心",
    "data/Addr":"新北市汐止區大同路二段313號",
    "data/OperationTel":"02-26477271#203",
    "data/WebUrl":"http://www.hjes.ntpc.edu.tw",
    "data/ParkType":"",
    "data/EnableYear":63,
    "data/EnableMonth":6,
    "data/Introduction":"本場(館)整修建於民國63年，平時以學生活動為主，內可打羽球、躲避球等室內活動，並辦理重要集會或活動，如畢業典禮。",
    "data/Contest":"未曾在本場地舉辦運動賽事",
    "data/ContestIntro":"",
    "data/Lng":121.6551384,
    "data/Photo1Url":"https://iplay.sa.gov.tw/Upload/photogym/20140619091028_IMG_1287.jpg",
    "data/Photo2Url":"https://iplay.sa.gov.tw/Upload/photogym/20140619091028_IMG_1290.jpg",
    "data/PassEasyEle":0,
    "data/PassEasyElePhotoUrl":"https://iplay.sa.gov.tw",
    "data/PassEasyFuncOthers":"無",
    "data/PassEasyParking":0,
    "data/PassEasyParkingPhotoUrl":"https://iplay.sa.gov.tw",
    "data/PassEasyShower":0,
    "data/PassEasyShowerPhotoUrl":"https://iplay.sa.gov.tw",
    "data/PassEasyToilet":0,
    "data/PassEasyToiletPhotoUrl":"https://iplay.sa.gov.tw",
    "data/PassEasyWay":0,
    "data/PassEasyWayPhotoUrl":"https://iplay.sa.gov.tw",
    "data/WheelchairAuditorium":"0",
    "data/WheelchairAuditoriumPhotoUrl":"https://iplay.sa.gov.tw",
    "data/PublicTransport":"汽車：1.走省道至汐止大同路\n\n           2.走中山高至汐止交流道下，右轉，約200公尺車程。\n\n           3.走北二高至汐止出口處下，走新台五路左轉新興路，左轉大同路。\n\n火車：至汐止或汐科火車站下，沿大同路直走，步行約十分鐘。\n\n捷運：至南港展覽館六號出口轉乘605、668、629、藍22，藍22至汐止國小站下車。\n\n公車：搭乘605、668、629、藍22、板基客運至汐止國小站。",
    "data/Declaration":"",
    "data/DeclarationUrl":"",
    "data/Rate":0,
    "data/RateCount":0,
    "data/GymFuncData/0/ID":9348,
    "data/GymFuncData/0/Name":"羽球場(館)",
    "data/GymFuncData/0/GymType":"球類運動設施/羽球場館",
    "data/GymFuncData/0/InOut":"室內設施",
    "data/GymFuncData/0/Floor":"2"
    }
  },
  {
    "type": "Feature",
    "geometry": {
       "type": "Point",
       "coordinates":  [ 25.05683177,25.05683177 ]
    },
    "properties": {
    "data/city":"新北市",
    "data/district":"泰山區",
    "data/ID":20249,
    "data/GymType":"水上/冰上運動設施/游泳池",
    "data/Name":"泰山國民運動中心",
    "data/Addr":"新北市泰山區全興路167號",
    "data/OperationTel":"02-22968860",
    "data/WebUrl":"http://www.xwtsc.com/",
    "data/ParkType":"一般及無障礙停車場",
    "data/EnableYear":104,
    "data/EnableMonth":8,
    "data/Introduction":"泰山國民運動中心為首座重視『技擊項目』之國民運動中心，設備完善的肌力與體能教室，由YMCA教練團隊積極打造一座『體能訓練中心』，提供優質的肌力與體能訓練課程，搭配個人訓練計畫與團體性週期化訓練，更與學校單位合作，針對選手、校隊與半職業選手量身訂做科學化運動監控和數據分析，搭配動傷害與防護，給各類型訓練族群及選手們頂級的訓練場所及教學內容。游泳池部分獨家引進日本YMCA水中安全教育系統，強調游泳是以『安全』為首要目標，對象涵蓋成人、孩童、幼兒等，也為肢體障礙民眾打造專屬合適之游泳課程。館內並有壁球等各項球類運動場所，提供市民更安全、公益、無障礙的全民運動環境同時提供跨齡且專業師資之運動課程。",
    "data/Contest":"未曾在本場地舉辦運動賽事",
    "data/ContestIntro":"",
    "data/Lng":121.4334244,
    "data/Photo1Url":"https://iplay.sa.gov.tw/Upload/photogym/20150716162138_新五泰.jpg",
    "data/Photo2Url":"https://iplay.sa.gov.tw/Upload/photogym/20150716162138_RG7P0.jpg",
    "data/PassEasyEle":2,
    "data/PassEasyElePhotoUrl":"https://iplay.sa.gov.tw/Upload/passeasyphotogym/新五泰國民運動中心無障礙電梯照片20191226151915.jpg",
    "data/PassEasyFuncOthers":"",
    "data/PassEasyParking":5,
    "data/PassEasyParkingPhotoUrl":"https://iplay.sa.gov.tw/Upload/passeasyphotogym/新五泰國民運動中心無障礙停車位照片20190917122402.jpg",
    "data/PassEasyShower":1,
    "data/PassEasyShowerPhotoUrl":"https://iplay.sa.gov.tw/Upload/passeasyphotogym/新五泰國民運動中心無障礙淋浴間照片20190917122402.jpg",
    "data/PassEasyToilet":1,
    "data/PassEasyToiletPhotoUrl":"https://iplay.sa.gov.tw/Upload/passeasyphotogym/新五泰國民運動中心無障礙廁所照片20190917122402.jpg",
    "data/PassEasyWay":1,
    "data/PassEasyWayPhotoUrl":"https://iplay.sa.gov.tw/Upload/passeasyphotogym/新五泰國民運動中心無障礙通道照片20190917122402.jpg",
    "data/WheelchairAuditorium":"0",
    "data/WheelchairAuditoriumPhotoUrl":"https://iplay.sa.gov.tw",
    "data/PublicTransport":"桃園機場捷運桃園機場捷運泰山站下車步行15分，或騎乘Ubike10分鐘可到，中心設有Ubike站",
    "data/Declaration":"除夕、初一不開放；如遇颱風等天災，依照新北市政府公告停止上班上課。",
    "data/DeclarationUrl":"",
    "data/Rate":6,
    "data/RateCount":2,
    "data/GymFuncData/0/ID":22964,
    "data/GymFuncData/0/Name":"綜合球場",
    "data/GymFuncData/0/GymType":"球類運動設施/籃球場館",
    "data/GymFuncData/0/InOut":"室內設施",
    "data/GymFuncData/0/Floor":"3"
    }
  },
  {
    "type": "Feature",
    "geometry": {
       "type": "Point",
       "coordinates":  [ 25.18740569,25.18740569 ]
    },
    "properties": {
    "data/city":"新北市",
    "data/district":"淡水區",
    "data/ID":16742,
    "data/GymType":"水上/冰上運動設施/游泳池",
    "data/Name":"淡水國民運動中心",
    "data/Addr":"新北市淡水區中山北路二段381巷2號",
    "data/OperationTel":"02-26261891",
    "data/WebUrl":"http://tssc.tw",
    "data/ParkType":"一般及無障礙停車場",
    "data/EnableYear":103,
    "data/EnableMonth":9,
    "data/Introduction":"新北市淡水國民運動中心於2014年09月12日開幕試營運，並自2014年09月22日起正式營運，由新北市政府體育處委託桑斯伯國際有限公司經營管理。\n淡水國民運動中心係新北市政府為提供市民便利舒適的運動環境，結合地方特色及體育賽事打造的運動場館。本公司將配合新北市政府之體育健康政策、增加運動人口，豐富市民健康生活、提昇市民健康體能及生活品質，秉持著保障全體市民的「運動權」為出發點，朝落實「處處皆可運動」、「人人喜愛運動」、「時時皆可運動」之目標努力，使淡水區成為健康、快樂、充滿活力的新市鎮。",
    "data/Contest":"未曾在本場地舉辦運動賽事",
    "data/ContestIntro":"",
    "data/Lng":121.4431649,
    "data/Photo1Url":"https://iplay.sa.gov.tw/Upload/photogym/20140925161819_外觀照1.jpg",
    "data/Photo2Url":"https://iplay.sa.gov.tw/Upload/photogym/20140925161819_外觀圖2.JPG",
    "data/PassEasyEle":2,
    "data/PassEasyElePhotoUrl":"https://iplay.sa.gov.tw/Upload/passeasyphotogym/淡水國民運動中心無障礙電梯照片20200507110055.jpg",
    "data/PassEasyFuncOthers":"",
    "data/PassEasyParking":2,
    "data/PassEasyParkingPhotoUrl":"https://iplay.sa.gov.tw/Upload/passeasyphotogym/淡水國民運動中心無障礙停車位照片20190917121548.jpg",
    "data/PassEasyShower":5,
    "data/PassEasyShowerPhotoUrl":"https://iplay.sa.gov.tw/Upload/passeasyphotogym/淡水國民運動中心無障礙淋浴間照片20200507094743.jpg",
    "data/PassEasyToilet":5,
    "data/PassEasyToiletPhotoUrl":"https://iplay.sa.gov.tw/Upload/passeasyphotogym/淡水國民運動中心無障礙廁所照片20190917121548.jpg",
    "data/PassEasyWay":0,
    "data/PassEasyWayPhotoUrl":"https://iplay.sa.gov.tw",
    "data/WheelchairAuditorium":"0",
    "data/WheelchairAuditoriumPhotoUrl":"https://iplay.sa.gov.tw",
    "data/PublicTransport":"搭乘台北捷運至淡水站，於 2 號出口轉乘公車：\n轉乘860、862、863、紅37公車至「新市國小站」下車，步行約 3 分鐘。 \n轉乘紅36、紅39公車至「米粉寮站」下車，步行約 10 分鐘。 \n轉乘871公車至「國民運動中心站」下車。 \n\n淡海輕軌，至「行政中心站」下車步行5分鐘即到達。",
    "data/Declaration":"除夕、初一不開放；如遇颱風等天災，依照新北市政府公告停止上班上課。",
    "data/DeclarationUrl":"",
    "data/Rate":6.7,
    "data/RateCount":3,
    "data/GymFuncData/0/ID":20586,
    "data/GymFuncData/0/Name":"游泳池",
    "data/GymFuncData/0/GymType":"水上/冰上運動設施/游泳池",
    "data/GymFuncData/0/InOut":"室內設施",
    "data/GymFuncData/0/Floor":"B1"
    }
  },
  {
    "type": "Feature",
    "geometry": {
       "type": "Point",
       "coordinates":  [ 25.0544889,25.0544889 ]
    },
    "properties": {
    "data/city":"新北市",
    "data/district":"三重區",
    "data/ID":16710,
    "data/GymType":"技擊運動設施/武術場",
    "data/Name":"三重國民運動中心",
    "data/Addr":"新北市三重區集美街55號",
    "data/OperationTel":"02-89720079",
    "data/WebUrl":"http://www.scsports.com.tw/",
    "data/ParkType":"一般及無障礙停車場",
    "data/EnableYear":103,
    "data/EnableMonth":10,
    "data/Introduction":"本公司是一個優質的公益組織，也是一個永續經營語學習的組織。 我們秉持誠信、服務、專心價值，除了提供三重區市民運動、休閒、藝文娛樂、社區交流等基本功能外。 更將積極促進三重區市民從事自主運動與終生學習。透過體育休閒活動的參與強化三重區集週邊市民身心健康、增進親子關係進而塑造三重國民運動中心成為\"人人愛運動、時時可運動、處處能運動\"的三重國民運動中心。",
    "data/Contest":"未曾在本場地舉辦運動賽事",
    "data/ContestIntro":"",
    "data/Lng":121.4883587,
    "data/Photo1Url":"https://iplay.sa.gov.tw/Upload/photogym/20140923115710_DSC_0358.JPG",
    "data/Photo2Url":"https://iplay.sa.gov.tw/Upload/photogym/20140923115710_DSC_0362.JPG",
    "data/PassEasyEle":3,
    "data/PassEasyElePhotoUrl":"https://iplay.sa.gov.tw/Upload/passeasyphotogym/三重國民運動中心無障礙電梯照片20191223114440.jpg",
    "data/PassEasyFuncOthers":"",
    "data/PassEasyParking":2,
    "data/PassEasyParkingPhotoUrl":"https://iplay.sa.gov.tw/Upload/passeasyphotogym/三重國民運動中心無障礙停車位照片20190917141933.jpg",
    "data/PassEasyShower":0,
    "data/PassEasyShowerPhotoUrl":"https://iplay.sa.gov.tw",
    "data/PassEasyToilet":7,
    "data/PassEasyToiletPhotoUrl":"https://iplay.sa.gov.tw/Upload/passeasyphotogym/三重國民運動中心無障礙廁所照片20200505121849.jpg",
    "data/PassEasyWay":2,
    "data/PassEasyWayPhotoUrl":"https://iplay.sa.gov.tw/Upload/passeasyphotogym/三重國民運動中心無障礙通道照片20190917141933.jpg",
    "data/WheelchairAuditorium":"0",
    "data/WheelchairAuditoriumPhotoUrl":"https://iplay.sa.gov.tw",
    "data/PublicTransport":"捷運 三重站2號出口 往重新路三段直行約5分鐘到集美街後右轉直行3三鐘即可抵達\n\n三重運動中心221,232,62,622,659,662",
    "data/Declaration":"除夕、初一不開放；如遇颱風等天災，依照新北市政府公告停止上班上課。",
    "data/DeclarationUrl":"",
    "data/Rate":5.7,
    "data/RateCount":7,
    "data/GymFuncData/0/ID":21603,
    "data/GymFuncData/0/Name":"游泳池",
    "data/GymFuncData/0/GymType":"水上/冰上運動設施/游泳池",
    "data/GymFuncData/0/InOut":"室內設施",
    "data/GymFuncData/0/Floor":"一樓"
    }
  },
  {
    "type": "Feature",
    "geometry": {
       "type": "Point",
       "coordinates":  [ 25.00420303,25.00420303 ]
    },
    "properties": {
    "data/city":"新北市",
    "data/district":"樹林區",
    "data/ID":20878,
    "data/GymType":"水上/冰上運動設施/游泳池",
    "data/Name":"樹林國民運動中心",
    "data/Addr":"新北市樹林區中正路188-6號",
    "data/OperationTel":"02-26819966",
    "data/WebUrl":"https://www.ntcslsports.com.tw/",
    "data/ParkType":"一般及無障礙停車場",
    "data/EnableYear":105,
    "data/EnableMonth":7,
    "data/Introduction":"樹林國民運動中心是新北市規畫的第九座運動中心，從入口處便能清楚看到高10公尺刻有“樹‧林”兩字的立面，中心外的開放廣場及休憩憩綠道，，滿足社區公眾休憩活動與聚會的多元需求，整體建築秉持環保節能與綠能科技，是一座結合節能減碳與健康品質的公共建築。內部規劃因採挑高設計，空間寬敞舒適，許多教室採摘玻璃幕幕，採光良好且視野寬廣，1樓設有50M室內溫水游泳池，內部有烤箱，蒸氣，SPA池，兒童池等，還有桌球室，撞球室，壁球室，飛輪教室，棋牌閱覽室和兒童遊戲室； 2樓設有體適能中心，韻律教室，羽球場，上方攀岩場以及跆拳道教室； 4樓為綜合球場，可容納兩面全場籃球場及一面排球場。",
    "data/Contest":"未曾在本場地舉辦運動賽事",
    "data/ContestIntro":"",
    "data/Lng":121.4233521,
    "data/Photo1Url":"https://iplay.sa.gov.tw/Upload/photogym/20160629100554_樹林外觀.jpg",
    "data/Photo2Url":"https://iplay.sa.gov.tw/Upload/photogym/20160629100554_樹林內部.jpg",
    "data/PassEasyEle":2,
    "data/PassEasyElePhotoUrl":"https://iplay.sa.gov.tw/Upload/passeasyphotogym/樹林國民運動中心無障礙電梯照片20200505144259.jpg",
    "data/PassEasyFuncOthers":"",
    "data/PassEasyParking":2,
    "data/PassEasyParkingPhotoUrl":"https://iplay.sa.gov.tw/Upload/passeasyphotogym/樹林國民運動中心無障礙停車位照片20190917133414.jpg",
    "data/PassEasyShower":4,
    "data/PassEasyShowerPhotoUrl":"https://iplay.sa.gov.tw/Upload/passeasyphotogym/樹林國民運動中心無障礙淋浴間照片20190917133414.jpg",
    "data/PassEasyToilet":4,
    "data/PassEasyToiletPhotoUrl":"https://iplay.sa.gov.tw/Upload/passeasyphotogym/樹林國民運動中心無障礙廁所照片20190917133414.jpg",
    "data/PassEasyWay":1,
    "data/PassEasyWayPhotoUrl":"https://iplay.sa.gov.tw/Upload/passeasyphotogym/樹林國民運動中心無障礙通道照片20190917133414.jpg",
    "data/WheelchairAuditorium":"0",
    "data/WheelchairAuditoriumPhotoUrl":"https://iplay.sa.gov.tw",
    "data/PublicTransport":"848、985、799、858、859、833、843",
    "data/Declaration":"除夕、初一不開放；如遇颱風等天災，依照新北市政府公告停止上班上課。",
    "data/DeclarationUrl":"",
    "data/Rate":4,
    "data/RateCount":10,
    "data/GymFuncData/0/ID":25640,
    "data/GymFuncData/0/Name":"羽球場",
    "data/GymFuncData/0/GymType":"球類運動設施/羽球場館",
    "data/GymFuncData/0/InOut":"室內設施",
    "data/GymFuncData/0/Floor":"4"
    }
  },
  {
    "type": "Feature",
    "geometry": {
       "type": "Point",
       "coordinates":  [ 24.95385494,24.95385494 ]
    },
    "properties": {
    "data/city":"新北市",
    "data/district":"鶯歌區",
    "data/ID":24234,
    "data/GymType":"球類運動設施/籃球場館",
    "data/Name":"鶯歌國民運動中心",
    "data/Addr":"新北市鶯歌區館前路250號",
    "data/OperationTel":"02-86782677",
    "data/WebUrl":"https://scysports.com.tw/",
    "data/ParkType":"一般及無障礙停車場",
    "data/EnableYear":107,
    "data/EnableMonth":3,
    "data/Introduction":"在地第一座綜合運動場館，期盼能以此為據點，改善鶯歌地區居民較少運動空間的不便。整體規劃以「精緻型室內運動館、開放式景觀廣場、多層次生態綠美化」為主軸，並導入休閒、親子、生態、趣味、健康五項元素，預期創造活力動能與自然永續的全民運動休閒環境。",
    "data/Contest":"未曾在本場地舉辦運動賽事",
    "data/ContestIntro":"",
    "data/Lng":121.3577701,
    "data/Photo1Url":"https://iplay.sa.gov.tw/Upload/photogym/20181015135646_SG48JGA941JJA8ZWMLOY.jpg",
    "data/Photo2Url":"https://iplay.sa.gov.tw/Upload/photogym/20181015135646_MENZWICDKQ74FRIL6T1W.jpg",
    "data/PassEasyEle":0,
    "data/PassEasyElePhotoUrl":"https://iplay.sa.gov.tw",
    "data/PassEasyFuncOthers":"",
    "data/PassEasyParking":0,
    "data/PassEasyParkingPhotoUrl":"https://iplay.sa.gov.tw",
    "data/PassEasyShower":0,
    "data/PassEasyShowerPhotoUrl":"https://iplay.sa.gov.tw",
    "data/PassEasyToilet":2,
    "data/PassEasyToiletPhotoUrl":"https://iplay.sa.gov.tw/Upload/passeasyphotogym/鶯歌國民運動中心無障礙廁所照片20190917120652.jpg",
    "data/PassEasyWay":0,
    "data/PassEasyWayPhotoUrl":"https://iplay.sa.gov.tw",
    "data/WheelchairAuditorium":"0",
    "data/WheelchairAuditoriumPhotoUrl":"https://iplay.sa.gov.tw",
    "data/PublicTransport":"搭車至「鶯歌火車站」，於前站下車後步行約10-15分鐘",
    "data/Declaration":"除夕、初一不開放；如遇颱風等天災，依照新北市政府公告停止上班上課。",
    "data/DeclarationUrl":"",
    "data/Rate":0,
    "data/RateCount":0,
    "data/GymFuncData/0/ID":30753,
    "data/GymFuncData/0/Name":"體適能中心",
    "data/GymFuncData/0/GymType":"阻力運動設施/多功能健身房/體適能中心（此空間中具有兩種以上之阻力運動器材設備）",
    "data/GymFuncData/0/InOut":"室內設施",
    "data/GymFuncData/0/Floor":"1F"
    }
  }
]
}